{"type":"FeatureCollection","features":[{"type":"Feature","properties":{"id":"13203","name":"San José de Maipo","source":"Biblioteca del Congreso Nacional","source_url":"https://www.bcn.cl/siit/mapas_vectoriales","edition":"BCN: ediciones referenciales 2014–2018"},"geometry":{"type":"Polygon","coordinates":[[[-70.00418960118778,-34.26210321489905],[-70.00555009070241,-34.26434869465013],[-70.00557477910138,-34.26484563898711],[-70.00611729595597,-34.26555947828183],[-70.00694844240967,-34.26575197667089],[-70.00855862314911,-34.265316772977805],[-70.0093052983217,-34.26540100524034],[-70.01039033203088,-34.26567226449055],[-70.01128976841247,-34.266271889089595],[-70.01217492786925,-34.26809931435615],[-70.01273172164865,-34.26877032307095],[-70.01365852071379,-34.271429370369916],[-70.01374418226266,-34.27232880607469],[-70.01458651184333,-34.27351377829607],[-70.01482921597184,-34.27433469252368],[-70.01528607307421,-34.27480582531369],[-70.01679940913782,-34.275748091880885],[-70.01879815705173,-34.27579092172601],[-70.0196290672485,-34.2761606902949],[-70.01980038675296,-34.27647477922118],[-70.01957967158597,-34.27808129195984],[-70.01880862601803,-34.28005632294274],[-70.0190390771261,-34.28106811793267],[-70.02335319226061,-34.28261163422552],[-70.02395294168028,-34.283270984475315],[-70.02441403523753,-34.28519896693838],[-70.02500438378773,-34.28602002757328],[-70.02802762165561,-34.287840544161995],[-70.03055306799028,-34.28855113482271],[-70.03126519305872,-34.288332382108585],[-70.03320353376134,-34.28713242424832],[-70.03547977935135,-34.28623874845386],[-70.0366835299169,-34.285143861726205],[-70.03728886865426,-34.28489376838613],[-70.03976850180774,-34.28484135430211],[-70.04086716116316,-34.28462022569331],[-70.04191815770622,-34.28413605485192],[-70.04357982179293,-34.283037131856204],[-70.0440389785824,-34.282447908490255],[-70.04566497416243,-34.281262014867636],[-70.05122620423622,-34.28087490046577],[-70.05209067728866,-34.28062169842302],[-70.05282020272415,-34.280173881813575],[-70.0533124121262,-34.279401277186174],[-70.05349326185753,-34.27850354423682],[-70.05334220115935,-34.27780849685264],[-70.05235799525596,-34.27607098983451],[-70.05227724389844,-34.275275310493264],[-70.05270636821135,-34.27232068337777],[-70.05342860561495,-34.27111614970473],[-70.05319579014106,-34.269422568309736],[-70.05256105493436,-34.267172465330546],[-70.05377353173459,-34.263934365611185],[-70.05381337381407,-34.261072170350275],[-70.05443502416036,-34.25918802905989],[-70.05404522539564,-34.25821763200584],[-70.05242100578494,-34.25650837325002],[-70.05202758950458,-34.255587423275486],[-70.05188015261024,-34.25484291745293],[-70.05193834996594,-34.25135557562394],[-70.05063637670888,-34.24941162911722],[-70.04998799160144,-34.24581457549819],[-70.04919111767246,-34.24389561249199],[-70.04940092010537,-34.242895464247965],[-70.05042448479462,-34.24096460552874],[-70.05119673500334,-34.23814096590579],[-70.05132281894336,-34.23512458037204],[-70.05018872643987,-34.22861256058375],[-70.0502477430591,-34.22760631191482],[-70.05064821830096,-34.22594289569802],[-70.05237718237211,-34.22404054629848],[-70.05288715146732,-34.22309757726933],[-70.05320733888237,-34.222813287633834],[-70.05434358554588,-34.222399941052394],[-70.05572794419595,-34.221195086358335],[-70.05616834506063,-34.22058241048374],[-70.05662407387898,-34.21884019020506],[-70.05856345662734,-34.21765770598538],[-70.060888112428,-34.215063346144895],[-70.0619633437208,-34.21309389706475],[-70.06392220553778,-34.211574361589456],[-70.06474446406007,-34.21047726313927],[-70.0665916751687,-34.20912435814263],[-70.06706446928251,-34.20708556017381],[-70.06739173362536,-34.20667994155283],[-70.06865557968676,-34.20580333567705],[-70.07003091296318,-34.20388638437464],[-70.07196039897205,-34.20199183732211],[-70.07613495364068,-34.19972371974289],[-70.07744706708064,-34.198015867209584],[-70.07977316467733,-34.19884336001598],[-70.08311935407639,-34.19952269767052],[-70.08550612568402,-34.20104604417049],[-70.08832145297096,-34.202167720659304],[-70.08941363637149,-34.202504206579576],[-70.09137478979075,-34.20266850765662],[-70.09321758478144,-34.20312054143667],[-70.0960941610011,-34.20319090858405],[-70.09979855272138,-34.202920462099165],[-70.10368265870245,-34.203035394680334],[-70.10581245464664,-34.20290894483504],[-70.10887350979134,-34.20240089982413],[-70.11089934280939,-34.20231519363598],[-70.11274325710092,-34.20188455731834],[-70.1151615532868,-34.20026090335514],[-70.11533094410835,-34.198209764581954],[-70.1158618439497,-34.19688899313366],[-70.11568817355413,-34.19377487635548],[-70.11731299862933,-34.19014270242547],[-70.11841724550582,-34.18938967525756],[-70.12015031847108,-34.18912556751731],[-70.12302402996329,-34.18835751284504],[-70.12887364888769,-34.1885453257943],[-70.13131214548939,-34.18919173162711],[-70.13304055979157,-34.18900830500869],[-70.13437752512387,-34.188597614835196],[-70.13573865603563,-34.18776906810403],[-70.14038418303467,-34.184301559453495],[-70.14279462075845,-34.1810378508639],[-70.14475543012296,-34.18031856923659],[-70.14694660435725,-34.17998672125639],[-70.14716304174686,-34.17974305212432],[-70.14734730417794,-34.17916495379815],[-70.14538966406975,-34.17631340674513],[-70.14596775241296,-34.17327416949015],[-70.14619404432123,-34.17285983081186],[-70.14724222644253,-34.17218981098589],[-70.15006544453094,-34.169653910788185],[-70.15018744742461,-34.16928494163475],[-70.14957092376365,-34.167706902981735],[-70.14960462675649,-34.1671183907649],[-70.14999576670591,-34.1664629232737],[-70.15186014372132,-34.164771495166086],[-70.15310338512508,-34.16335263959131],[-70.15383294020498,-34.16119748469916],[-70.15436083069011,-34.16079957664845],[-70.157365055715,-34.159490874015106],[-70.15889078134302,-34.15929895412365],[-70.1627159551465,-34.15953574547649],[-70.16378112530813,-34.15945170094594],[-70.16425140863072,-34.15917301479715],[-70.16337547217697,-34.15771090466694],[-70.16294568131411,-34.15639253355583],[-70.16279217360508,-34.15378359913809],[-70.16258068054282,-34.153063691240064],[-70.16212209867511,-34.1522485328922],[-70.16036782007926,-34.15024736719732],[-70.1603008030641,-34.14965477975957],[-70.16052641764266,-34.14836233727361],[-70.16080940941504,-34.14782864373141],[-70.16182640562293,-34.14681955959681],[-70.162543757988,-34.14575812034845],[-70.16300125109757,-34.1430472073394],[-70.16460600691103,-34.140588706305465],[-70.16453876531708,-34.140000628889936],[-70.16399164190169,-34.138970377769425],[-70.16272932207792,-34.13720023744904],[-70.16224731933414,-34.13592032497051],[-70.16181730748573,-34.13548453902698],[-70.1614937819311,-34.134084848158125],[-70.16075962657862,-34.13367749627429],[-70.15832702831511,-34.1329510007729],[-70.15827376989687,-34.1312286472614],[-70.1581107499273,-34.13055119209],[-70.1577362395904,-34.130032052715876],[-70.15647477765773,-34.12914007065373],[-70.15398254114082,-34.1285821895726],[-70.15324608789784,-34.12821537144928],[-70.15247642304051,-34.12755446512134],[-70.14968404142085,-34.12429619255035],[-70.14567554931565,-34.122881034239356],[-70.14438354825657,-34.12165004435559],[-70.1424575584908,-34.12090276982396],[-70.14187478363675,-34.12050135516289],[-70.14174029056737,-34.120203334202614],[-70.14271372836544,-34.11906656086486],[-70.14324907396912,-34.117660296741924],[-70.1446207798484,-34.116624927283276],[-70.14771935941916,-34.115401209936834],[-70.14899538394091,-34.11515900624953],[-70.15120877620711,-34.11440897312163],[-70.15785881471093,-34.11110093542532],[-70.15976742836418,-34.1068532289799],[-70.16242096727181,-34.10368412692421],[-70.16441612372121,-34.10057004438318],[-70.16471766300926,-34.09881676548713],[-70.16470963296894,-34.09629906994761],[-70.16447930403177,-34.095911705267845],[-70.16229488063685,-34.09439798478951],[-70.15971737962643,-34.094462830524115],[-70.15922086729417,-34.094317177690904],[-70.15874832291199,-34.09375367575243],[-70.15873100968153,-34.09316748350243],[-70.15998258565449,-34.08981247782295],[-70.16077320461416,-34.08833509422469],[-70.16097701169086,-34.08741998430671],[-70.16136744825943,-34.08676448410038],[-70.16387912970899,-34.08430124780928],[-70.16427290980705,-34.08360071498601],[-70.16470641700023,-34.08219029753163],[-70.16465300317343,-34.08046793485448],[-70.1650483364586,-34.079727049453865],[-70.1663573417277,-34.07889600693074],[-70.16754344578781,-34.07756028733696],[-70.1694238739007,-34.07377057577049],[-70.1706488615379,-34.07264345313913],[-70.17158090766262,-34.07221635598669],[-70.17217309057263,-34.07156872312929],[-70.17149879715407,-34.070114618831646],[-70.1710686703213,-34.067913582740765],[-70.17182090426886,-34.06622299097181],[-70.17175070362435,-34.06479267381066],[-70.17389233846565,-34.06172919263561],[-70.17448552928543,-34.059275776783785],[-70.17485689102726,-34.05895256419839],[-70.17498678472239,-34.05845339511108],[-70.17470283983751,-34.05634361142442],[-70.17481945194116,-34.05429020881858],[-70.17456456575908,-34.05344262102285],[-70.17350256485376,-34.05172109843104],[-70.1702683756077,-34.04827493241608],[-70.1693544152646,-34.04572158789235],[-70.16938300594516,-34.0452183646289],[-70.17086796063569,-34.04393487975311],[-70.17258547927182,-34.04299372143698],[-70.17475393960412,-34.04211530959422],[-70.17835118117561,-34.037384248351415],[-70.18031992356242,-34.03557466630468],[-70.1837260350825,-34.033312764553834],[-70.18614987836524,-34.0323586316632],[-70.1871087922018,-34.03235573052862],[-70.18905648526486,-34.032684277247306],[-70.19097865359743,-34.03258854533249],[-70.19243305928006,-34.03273106594501],[-70.19548125144824,-34.03322872189043],[-70.2002092401971,-34.03433705131951],[-70.20499216541717,-34.03448352715388],[-70.20615940485632,-34.03435801612197],[-70.20683449687718,-34.03400609231958],[-70.20796718441555,-34.03270833788237],[-70.21016519482914,-34.031281076306875],[-70.21465474644711,-34.03036646612057],[-70.21561065721565,-34.03040370900787],[-70.21758132648873,-34.03123711130274],[-70.21838849061928,-34.0312280809643],[-70.22064063441022,-34.03064029320044],[-70.22180696924586,-34.030519075793976],[-70.22385586022062,-34.030851013969865],[-70.22601838987543,-34.03185841637966],[-70.2278056348456,-34.03146854075623],[-70.22976827138339,-34.03154489042044],[-70.23202076461897,-34.03183963892121],[-70.23363354957442,-34.031861734427565],[-70.23678260188774,-34.03236237477436],[-70.2392984748764,-34.03245997030877],[-70.24089268716337,-34.03281459989806],[-70.24379632872422,-34.03410254325083],[-70.24437914220584,-34.03450340653469],[-70.2448949449605,-34.03519446597406],[-70.24587004823509,-34.03850627329052],[-70.24583328917369,-34.04005848434847],[-70.24527726255553,-34.0418878937969],[-70.24539096591428,-34.04256329716814],[-70.24623572813277,-34.04368577613214],[-70.24770343337319,-34.046305153518624],[-70.24818634072048,-34.047584803511825],[-70.2478067764618,-34.04987585252611],[-70.24819396651894,-34.051066345362806],[-70.24809897506752,-34.05727737941468],[-70.24823704612669,-34.05751688641621],[-70.24932055719147,-34.05797772061151],[-70.24988229889146,-34.05875605196933],[-70.25032171430426,-34.0590252186322],[-70.25281973148005,-34.0598334658903],[-70.2538371148618,-34.061381496347636],[-70.25424856212656,-34.06388337975381],[-70.25516023176567,-34.06499941847531],[-70.25609151971231,-34.065765078533126],[-70.25890568098602,-34.06711686721921],[-70.25961559080898,-34.06776575450193],[-70.26143634024427,-34.071213757057414],[-70.26190876874378,-34.071475226516604],[-70.26555191871786,-34.07134563670271],[-70.26644786334796,-34.0710020457125],[-70.26737074935173,-34.0701729579643],[-70.26919665421843,-34.06710896883012],[-70.27070638713944,-34.06565397908604],[-70.27292804660121,-34.06482094328223],[-70.2764540939915,-34.063875923848414],[-70.27759240588186,-34.06383868152037],[-70.27895285497233,-34.06272918156426],[-70.27958722815798,-34.06240232817817],[-70.28182774146093,-34.061813020262484],[-70.28640646883713,-34.05885914594755],[-70.28746709981164,-34.058467582256846],[-70.28955170780208,-34.058331441971696],[-70.29170291868431,-34.058765326458385],[-70.29472770165448,-34.059827145296374],[-70.2987510051821,-34.05987334448823],[-70.30211178771295,-34.060731744527885],[-70.30283917066647,-34.06108380822147],[-70.30402246030481,-34.062583849961584],[-70.30417737926714,-34.06329229312435],[-70.30384393721008,-34.06522507707416],[-70.30410808053117,-34.06572152209022],[-70.30464544195435,-34.06598531390125],[-70.30606810746308,-34.066093868640635],[-70.30715335407298,-34.06643264476621],[-70.3079394931343,-34.06689501105665],[-70.30840022017891,-34.06693066402572],[-70.3087201111499,-34.06687081650022],[-70.3091673904147,-34.06640160088043],[-70.3106831600144,-34.063649262224885],[-70.3111280461673,-34.0632339202309],[-70.31258197394621,-34.0627761099651],[-70.31355854776294,-34.062142392778384],[-70.31412775625957,-34.060650903070226],[-70.3144773194827,-34.05842153337632],[-70.31491304641297,-34.05728968830951],[-70.32261505074203,-34.057435095227504],[-70.32338068216374,-34.05768039190108],[-70.32508041864882,-34.0592314013431],[-70.32607290432416,-34.059485389717274],[-70.32908027255424,-34.0591135961085],[-70.33059805797345,-34.05865791364322],[-70.33173539249678,-34.057458204409286],[-70.33303899799272,-34.05677816473825],[-70.33708390151132,-34.055824161863995],[-70.33816214755022,-34.055108547908475],[-70.33912987565634,-34.05403738825507],[-70.34030893333136,-34.05324449286208],[-70.34077804165757,-34.04942522111321],[-70.34160149853243,-34.04802436110009],[-70.3416387534639,-34.045566730128854],[-70.34132092682142,-34.04425759133499],[-70.34149494037342,-34.042859088197545],[-70.34165110440074,-34.042378600967126],[-70.34274082911233,-34.04144718188456],[-70.34443165969968,-34.03902533020786],[-70.34354983478921,-34.037938003617555],[-70.34230731203768,-34.03691799232056],[-70.3416390885355,-34.036082004626316],[-70.3412049282671,-34.03511971862788],[-70.33948630560151,-34.03332504714988],[-70.3393969744347,-34.03080858160027],[-70.33920574826355,-34.030152882394866],[-70.3370859694331,-34.027969083708925],[-70.3335310223418,-34.02356447167018],[-70.33076498202124,-34.020757114316254],[-70.3300394567837,-34.020378153543845],[-70.32814944364672,-34.019927922344614],[-70.3257537427852,-34.01983668287911],[-70.32324152863465,-34.01830881509425],[-70.3213887910904,-34.01636018150416],[-70.32115902629523,-34.01547326381641],[-70.32246463772918,-34.01355043764914],[-70.32507872622281,-34.01144772867015],[-70.32768260626156,-34.01032732371011],[-70.32779010585497,-34.00979056661964],[-70.32679530432283,-34.00848373527747],[-70.32604202473627,-34.00555250376583],[-70.32424739561448,-34.00424710479519],[-70.32365331007269,-34.003272802390086],[-70.32192292307013,-34.00149387267526],[-70.32111478696244,-34.00025760466857],[-70.32112716125549,-33.99933823790898],[-70.3216708611913,-33.99845490267056],[-70.32312571423496,-33.99762212434896],[-70.32388783593886,-33.99692148816568],[-70.32386228515725,-33.996000607672435],[-70.32433769067359,-33.99497187071323],[-70.32570868329053,-33.99427862852039],[-70.32652608013048,-33.99326296646302],[-70.32720705252319,-33.991956592852475],[-70.3279798965183,-33.9896702968561],[-70.32778652157698,-33.986252829170944],[-70.32835362352428,-33.98424423353174],[-70.32950128418183,-33.981369449951316],[-70.3312114483107,-33.980736607012226],[-70.33402698221016,-33.98008230441766],[-70.33474028766489,-33.98026804869272],[-70.33813432492923,-33.98017481420676],[-70.34048863681237,-33.979598073931065],[-70.34123317129963,-33.97921393257338],[-70.3415656674307,-33.97870315104046],[-70.3427247753199,-33.97770020431897],[-70.34561452173993,-33.975684484499524],[-70.34815003459566,-33.97248141005159],[-70.34975188525748,-33.971035242895574],[-70.35052037781337,-33.96950992278169],[-70.350864027427,-33.96809542269479],[-70.35082944678014,-33.967332814940576],[-70.34908526255312,-33.965807579662865],[-70.34906280467102,-33.964823358793815],[-70.34706557670657,-33.963050574854144],[-70.34643872241986,-33.96197995804924],[-70.34653363841278,-33.960936754893055],[-70.3461987024574,-33.95940136554193],[-70.34620909686355,-33.95781572978926],[-70.34677722828016,-33.956473101630344],[-70.34863949245799,-33.954434201191724],[-70.34966343803292,-33.95380677840062],[-70.35031269091294,-33.95307006014878],[-70.35485214843649,-33.95219490800362],[-70.35588287719011,-33.95144081052962],[-70.35937598785053,-33.95090664873775],[-70.36032388295179,-33.950276284821356],[-70.3613812054311,-33.949031388568564],[-70.36240841548377,-33.948340588564356],[-70.3635926285902,-33.946862593982374],[-70.36358132239404,-33.94637048530434],[-70.36528344121123,-33.94516583851148],[-70.36578911007119,-33.94426492983759],[-70.36643285807516,-33.94292514185855],[-70.36657753534492,-33.941661664129434],[-70.36735556890744,-33.93924844319392],[-70.36828745153879,-33.937507107315874],[-70.36926868581521,-33.93695719880641],[-70.37020140477809,-33.935200029769526],[-70.3720910801485,-33.933336153439654],[-70.373692482551,-33.93117582480497],[-70.37534052368639,-33.929556537413426],[-70.37622718782127,-33.927940349781736],[-70.37672814591588,-33.922342499074695],[-70.3786429947755,-33.91882179886273],[-70.37619410915757,-33.916268190142425],[-70.37573399566232,-33.91547163038943],[-70.37567416337279,-33.912592246105476],[-70.37503751565285,-33.91106967989407],[-70.3740686925004,-33.91037386991056],[-70.37173997002644,-33.90956687804468],[-70.36911085541304,-33.90766959508334],[-70.36864105358742,-33.90705248458763],[-70.36860497634731,-33.90639176723576],[-70.37288947043366,-33.899632957381215],[-70.37257286549999,-33.89772767414427],[-70.37146208158319,-33.8962606763762],[-70.37139026037791,-33.895354793655855],[-70.37280382146122,-33.89428919394303],[-70.37319517071812,-33.89371221761459],[-70.37362307601718,-33.89184628308665],[-70.37434001246228,-33.890168019690854],[-70.37551931986896,-33.88877093504661],[-70.37551310442552,-33.888389285319114],[-70.37481131267779,-33.88744271217367],[-70.37457174187298,-33.88677724917938],[-70.37455184239282,-33.885536719591286],[-70.37491089811355,-33.88368986907922],[-70.37611618120499,-33.88270826374128],[-70.3794450412039,-33.880950827660925],[-70.38260537635718,-33.87968691486779],[-70.38387688504797,-33.879414811349434],[-70.38479509352408,-33.87933623310451],[-70.38560258194644,-33.87949308001831],[-70.38884739377073,-33.881330784194326],[-70.3909480546553,-33.881855393444496],[-70.39181059812651,-33.881784113334625],[-70.39388547017589,-33.88119528331083],[-70.39690375203836,-33.88074982947306],[-70.39812136720201,-33.88033605275527],[-70.4000044165989,-33.87882111803518],[-70.40134702335118,-33.876948241661935],[-70.40619171044197,-33.87446296820894],[-70.41098147812956,-33.87071891934859],[-70.41321030435067,-33.86757721344116],[-70.41412551245371,-33.86401276100836],[-70.41542717579196,-33.8621111713132],[-70.41758719465557,-33.85982256019515],[-70.41816203828397,-33.85770456942391],[-70.41910811789006,-33.85607786177685],[-70.42305102489469,-33.85456270912961],[-70.42741612840474,-33.854855680111626],[-70.4338112232343,-33.85360231530629],[-70.4311634533074,-33.85232408112818],[-70.43035250637118,-33.85205520425894],[-70.42859157844559,-33.85202576136596],[-70.42751455950537,-33.85143179176719],[-70.42704410280793,-33.8508287968937],[-70.42678944569624,-33.849747393337914],[-70.42627184541269,-33.84872561994407],[-70.42189218829671,-33.84259766338483],[-70.42122903668262,-33.84193303709491],[-70.42002718874882,-33.84117857501259],[-70.41805934198239,-33.840496892286595],[-70.41571529335135,-33.84026777926417],[-70.41367286665339,-33.83971498347282],[-70.41138410034496,-33.8381725186829],[-70.40967243243628,-33.835567053903006],[-70.4090587636213,-33.833237061682524],[-70.40772843863559,-33.831651578150435],[-70.40779467950632,-33.83101060832978],[-70.40809418141531,-33.83055890500421],[-70.40848743240565,-33.8276412417903],[-70.40854684069035,-33.82658412864058],[-70.40820851539142,-33.82466712960672],[-70.40752253309435,-33.82259415439693],[-70.40663714187225,-33.82122764218298],[-70.40627514955882,-33.82020732342263],[-70.40648383897911,-33.81889237821265],[-70.40636399294044,-33.81860562618846],[-70.40495679462425,-33.81698891846639],[-70.40376351571997,-33.814377447720524],[-70.40309399145725,-33.80625359830697],[-70.40301849524414,-33.80398148887197],[-70.40351714287183,-33.80163879547152],[-70.40411120595574,-33.800447566806746],[-70.40479032781897,-33.79976755395499],[-70.40471817603367,-33.79887202708793],[-70.40610264068492,-33.79677528929406],[-70.406382146994,-33.7951074342198],[-70.40586652839396,-33.79405687224692],[-70.40342552459433,-33.79133149528154],[-70.40310001376291,-33.79018271733336],[-70.40339052802749,-33.78918694844217],[-70.40547228746019,-33.78753049385762],[-70.40693535380048,-33.785561099741045],[-70.40726602814814,-33.78350842383589],[-70.40723992759754,-33.779571000937345],[-70.4083356674283,-33.77507652315553],[-70.40828785190236,-33.77450082786515],[-70.40781230085895,-33.77354585197198],[-70.40652762645932,-33.77234404184198],[-70.40467091476825,-33.77015618990443],[-70.4039219614681,-33.768884199048145],[-70.40379151261413,-33.76558824602274],[-70.40260998906363,-33.76364880875402],[-70.4024617517704,-33.76278612900871],[-70.40416973748471,-33.75940521549205],[-70.40412196328127,-33.75882958967336],[-70.40360982385634,-33.75797097657986],[-70.4024114110802,-33.75734437855087],[-70.40215291816224,-33.75677099815378],[-70.40225702032726,-33.756097530580945],[-70.40282033946889,-33.755386782691254],[-70.40325765372222,-33.75400525458497],[-70.39999974895268,-33.749272204285184],[-70.40031389609574,-33.74737981466662],[-70.40212785786076,-33.744638019251155],[-70.40331503540764,-33.74340798700807],[-70.4036121019839,-33.742828438937835],[-70.40363004762833,-33.74157963116603],[-70.40330275004781,-33.74030275886508],[-70.4034708796347,-33.73886023495589],[-70.40319013005727,-33.73809509969665],[-70.4035238820331,-33.736234540692124],[-70.40344172660879,-33.73354632937301],[-70.4036166223064,-33.73251987962262],[-70.40463018605159,-33.73122775744685],[-70.40484855841233,-33.73052092290346],[-70.40458596648172,-33.72969160550384],[-70.40392323707582,-33.72899479267208],[-70.40277947869987,-33.72699093116366],[-70.40251735389323,-33.72500903658717],[-70.40285576632876,-33.72343647290054],[-70.40415780426449,-33.721052634930096],[-70.40356874659334,-33.72016297333064],[-70.40356301534183,-33.719810862505774],[-70.40419491636382,-33.71861919622207],[-70.40414248259898,-33.71775534842139],[-70.40262622162082,-33.71521145645636],[-70.40051949081987,-33.712866397791146],[-70.4004748939576,-33.71248266487506],[-70.40101508327729,-33.710363629551715],[-70.40174936798715,-33.70840240881944],[-70.40208832929332,-33.70804638479559],[-70.40518827609995,-33.70669864044275],[-70.40737816933662,-33.70475280695011],[-70.40919610435014,-33.70348361627957],[-70.4130461965213,-33.70235103953538],[-70.41498089096218,-33.701208460319556],[-70.41801858002806,-33.700757470593494],[-70.4220220146182,-33.699654993714205],[-70.43055813612962,-33.695874732499135],[-70.43239253366903,-33.69562947887706],[-70.43330675991345,-33.69533075125435],[-70.43451244814509,-33.694132200216906],[-70.43694964129129,-33.690998499900424],[-70.43768561752884,-33.68919714750744],[-70.43891460266903,-33.68825441818525],[-70.43946269356996,-33.686679314238006],[-70.43970141456852,-33.68491580411733],[-70.4409289525228,-33.68344122728545],[-70.43994177499245,-33.68121091514334],[-70.43918159993778,-33.68012209678062],[-70.4384079357808,-33.67822225077294],[-70.43805825936994,-33.677796868851786],[-70.43643729884708,-33.67643184331959],[-70.43366951130328,-33.67474588445772],[-70.43275013411902,-33.674374820214005],[-70.43170792669268,-33.673480196357225],[-70.43074984828935,-33.670771106597854],[-70.43067539861353,-33.669722161214125],[-70.43134510074269,-33.66880762746593],[-70.43225026208759,-33.6683198883064],[-70.43285337839292,-33.66683356320557],[-70.4336966943238,-33.66606025354225],[-70.43379490264222,-33.665104683652245],[-70.43344389582643,-33.66458370474428],[-70.43033022725383,-33.66266319346958],[-70.43003938600248,-33.66233255600423],[-70.42990403234707,-33.66104561441908],[-70.42949740903539,-33.66062086458291],[-70.4262967080848,-33.66032376567663],[-70.4241926839078,-33.66077748355767],[-70.42253719304374,-33.6607488242835],[-70.42133418628325,-33.66047638648868],[-70.41937467318769,-33.65930584627607],[-70.41823296386893,-33.658104688900366],[-70.41246842977496,-33.654000708907326],[-70.41072522650825,-33.65172898114075],[-70.40821430862667,-33.64955019681108],[-70.4078738821683,-33.64893859273816],[-70.40783204043899,-33.648283914404246],[-70.40697812348947,-33.64700401280806],[-70.40724073158974,-33.64660725042721],[-70.41019796664042,-33.64600091781272],[-70.410816982228,-33.64546894827964],[-70.41132266276604,-33.64498591980028],[-70.41202607237959,-33.64263948416359],[-70.41315520348778,-33.64191077346024],[-70.41426576911397,-33.64003692488245],[-70.4148846248014,-33.63950478986253],[-70.4157864596848,-33.638826381075376],[-70.4176660954836,-33.63789295839595],[-70.41914389329625,-33.637685398046536],[-70.42078655891301,-33.63709463753162],[-70.42123752486374,-33.63680347132895],[-70.42269030549404,-33.63507122937708],[-70.42374198834997,-33.63320056178232],[-70.42446091725839,-33.628426746328415],[-70.4247854579093,-33.62737452322827],[-70.42579183153893,-33.626219208681846],[-70.42662418802331,-33.62487528757963],[-70.42692346355685,-33.62229842272266],[-70.4276497308028,-33.62143223579987],[-70.4277993523999,-33.6201438381941],[-70.42836646063539,-33.61999433407585],[-70.42967710622818,-33.62002683993684],[-70.43511180320434,-33.62066004723447],[-70.43584771835646,-33.620317426259746],[-70.43679504572248,-33.61897018297294],[-70.43711982263028,-33.61791652179166],[-70.43890902053786,-33.61574821621854],[-70.44101634243026,-33.608708470573],[-70.44038346493956,-33.60494581709034],[-70.44035807226142,-33.60341896863559],[-70.44068107769151,-33.60226986626735],[-70.44059716246754,-33.60064824654379],[-70.4437022009252,-33.58849062123365],[-70.44399181148461,-33.58533749392033],[-70.44382497816667,-33.57874516377508],[-70.44818012295349,-33.57936553226861],[-70.44994088918233,-33.57983406387529],[-70.4519915336685,-33.582346939398754],[-70.45265692657924,-33.58282828046807],[-70.45448615072092,-33.58302066871452],[-70.45809729192483,-33.58276428766052],[-70.46092624126474,-33.581599910224455],[-70.46180091648385,-33.58149789624143],[-70.46220520327748,-33.581645973338965],[-70.46250907638863,-33.58234533711927],[-70.46244898628264,-33.58311024743942],[-70.46189002397014,-33.584614593796275],[-70.46021970281906,-33.587354748845634],[-70.45963606737897,-33.5895624040968],[-70.46016579132561,-33.59065657346768],[-70.46086731627369,-33.59110678218259],[-70.46638487924155,-33.59125545789427],[-70.46949548725395,-33.591615866948125],[-70.47208262359412,-33.59233401362447],[-70.47339767811833,-33.592348944301186],[-70.47426785277786,-33.59197177200211],[-70.47567369373961,-33.59088517794119],[-70.47671082478627,-33.58958902021146],[-70.4771094405155,-33.58940082072725],[-70.47842444922563,-33.589415699529404],[-70.47890169898325,-33.589562850093394],[-70.47916250416475,-33.58986536620603],[-70.48009683560356,-33.593247125298234],[-70.4806633770021,-33.594340687475245],[-70.48132910498444,-33.59482179102827],[-70.48220702312172,-33.594903032247984],[-70.48575989061312,-33.594417143185694],[-70.48751589936421,-33.59457940631859],[-70.48899228682187,-33.59547869322264],[-70.49116132836419,-33.5984174408961],[-70.49464902757332,-33.59944517554964],[-70.49535749649854,-33.59985882566667],[-70.49565833420235,-33.59899266314397],[-70.4953857817519,-33.59641894680737],[-70.495474284672,-33.59493846956441],[-70.49589902520633,-33.59311992357971],[-70.49588007973699,-33.592022547580335],[-70.49632548691274,-33.59139680673966],[-70.49723020628652,-33.59095633423002],[-70.49844482197544,-33.588650965586204],[-70.49795912086762,-33.58693881320054],[-70.49805314842672,-33.5824969368734],[-70.49861025481984,-33.58172924535929],[-70.49984865340592,-33.580807533244226],[-70.50045095673593,-33.57936854684332],[-70.50030217775857,-33.57736611108553],[-70.5004452362642,-33.5724489658875],[-70.50008341642732,-33.571308018009326],[-70.49868744525557,-33.569702418500285],[-70.49596976484001,-33.56771761037],[-70.49555813521727,-33.56723011236894],[-70.49520346058014,-33.5666571866292],[-70.49504199200109,-33.56562476637438],[-70.4931300429032,-33.56305006217791],[-70.49153656274319,-33.56162820396001],[-70.48946362476661,-33.56041245233052],[-70.48899793183513,-33.55984535017857],[-70.48875767561576,-33.559132430720325],[-70.48852857467558,-33.555746896611005],[-70.48682278085056,-33.55266545742774],[-70.4866060407287,-33.549995575434316],[-70.48611337767743,-33.547854060186346],[-70.48602534727117,-33.54604154337552],[-70.48668056496467,-33.544363500826975],[-70.4875459740616,-33.54343050797702],[-70.48698299448317,-33.543229450453445],[-70.48682364053829,-33.542739184722706],[-70.4868422150034,-33.540496002996505],[-70.48666564215117,-33.54016411808316],[-70.48585239373118,-33.53926709339963],[-70.48521916859247,-33.53889288560641],[-70.48092394951993,-33.537655889752294],[-70.47999845211363,-33.53685561878963],[-70.47980556046593,-33.53556940240218],[-70.48001476821413,-33.5344692835608],[-70.48003523992115,-33.53232152635772],[-70.4797959547806,-33.53165629968416],[-70.4761653120502,-33.52926576672449],[-70.47524814292491,-33.528942616619624],[-70.47363113678594,-33.52802345856485],[-70.47054755638548,-33.52728054471479],[-70.46922830133899,-33.52677121988973],[-70.46747577445795,-33.52421494709557],[-70.46619733795967,-33.51936241085895],[-70.4658402378713,-33.51845991808675],[-70.46455809672076,-33.51675709747086],[-70.4632920740414,-33.51600844572317],[-70.46146043432992,-33.51550516077362],[-70.46013588910475,-33.51466178781432],[-70.45543044447624,-33.51081360299495],[-70.45477647454267,-33.50985937402471],[-70.45051926139315,-33.50606867343238],[-70.44846506856162,-33.50516433940281],[-70.44310921042975,-33.50418330009585],[-70.43898723145976,-33.50022534283171],[-70.43838317910988,-33.499266305508215],[-70.43724739058715,-33.498039784737074],[-70.43714483172779,-33.49740989235743],[-70.43729149247771,-33.49582095586072],[-70.43779637800674,-33.49410699422288],[-70.43793944819046,-33.49015756039304],[-70.43904655440448,-33.48841975822567],[-70.43915293559539,-33.48660513861035],[-70.43900425363609,-33.48586252543174],[-70.43775839723652,-33.483497683119445],[-70.43616950656933,-33.48185055714219],[-70.43488421143383,-33.48138958621681],[-70.43441645956372,-33.48097019136785],[-70.43159267463837,-33.48181914785244],[-70.43010436294362,-33.4817821783673],[-70.42931610834981,-33.48223499765431],[-70.42937521839382,-33.483777597669246],[-70.42917435509627,-33.48404492274589],[-70.42848796676073,-33.48433476429607],[-70.42776845304908,-33.48421812591474],[-70.42475621505184,-33.4830617755126],[-70.41913415825353,-33.48189891892966],[-70.41566830337717,-33.483076614937424],[-70.41241321931759,-33.48459986320233],[-70.40934506838045,-33.4863867231458],[-70.40707736127722,-33.487239365065186],[-70.40534261295397,-33.48815226609578],[-70.40408994283297,-33.48906958145249],[-70.40297648103831,-33.4895281373442],[-70.40139552339338,-33.48996027550069],[-70.39850526583194,-33.48973568175965],[-70.39643849838305,-33.489874910229304],[-70.39372438338083,-33.49066570130498],[-70.39301601955847,-33.490287937414706],[-70.39073462841854,-33.488266262016595],[-70.38850752516615,-33.486705984232714],[-70.38624984775306,-33.486292930224096],[-70.38300725746247,-33.485320693916385],[-70.37929996148888,-33.48308346073201],[-70.37604733252499,-33.482696138654234],[-70.37274010036485,-33.48289225629426],[-70.37071617716512,-33.48327586427627],[-70.36888269860223,-33.484081043136825],[-70.36426662915798,-33.48561060387148],[-70.36105136472003,-33.48715187761491],[-70.35925352232448,-33.48720153481148],[-70.35675806085568,-33.486346671859714],[-70.35529356439743,-33.48626916524876],[-70.3533403233392,-33.48661012384206],[-70.3528790034065,-33.4869441539408],[-70.35174655032841,-33.488631100697845],[-70.35129977412018,-33.49057793637583],[-70.35140105198194,-33.49160865418657],[-70.34977271090071,-33.490484498606975],[-70.34821563856086,-33.48993951199537],[-70.34647874955228,-33.48898693710194],[-70.34491314411555,-33.48784703681759],[-70.3432715897148,-33.48628548681275],[-70.34067302141432,-33.484552745888806],[-70.33691950801769,-33.479970550119404],[-70.33579254723925,-33.47811298824428],[-70.3345479134468,-33.47671940219149],[-70.33217991573031,-33.47593196278496],[-70.33053883384339,-33.47494222022251],[-70.32646920868817,-33.47336983615981],[-70.32196029927417,-33.4728211241098],[-70.32081626960701,-33.472449063479395],[-70.31931479938999,-33.47125280719706],[-70.31749011892701,-33.468927361650074],[-70.31504474302687,-33.466564884470955],[-70.31141090409069,-33.46584173871617],[-70.3089165592278,-33.46571110607936],[-70.30660357613594,-33.465294656890556],[-70.30465318363547,-33.46453153733818],[-70.30083241786508,-33.46076093886771],[-70.2992001475528,-33.45828047760595],[-70.2989850270934,-33.45717790127306],[-70.29943737285639,-33.45558270238556],[-70.29933047513421,-33.45349798514452],[-70.2989902525934,-33.4524986760665],[-70.29835582461051,-33.45206018262062],[-70.29514997810999,-33.451334872700706],[-70.29228451315208,-33.45104575123544],[-70.28934355108275,-33.45197869543529],[-70.28533603005637,-33.452366447116],[-70.28431434733767,-33.452827422527335],[-70.28345536119498,-33.45369542051929],[-70.28255187251315,-33.455642626760216],[-70.28164696359485,-33.45542339500855],[-70.27710195627945,-33.4534259774266],[-70.27619189282807,-33.452810304687446],[-70.2745532121379,-33.45086965083566],[-70.27276507783564,-33.44914853377016],[-70.26682454311627,-33.44537258678015],[-70.2633353958229,-33.44427527174765],[-70.25961223200812,-33.44421828684625],[-70.25763680346068,-33.44372374675874],[-70.2556940628098,-33.442419830031945],[-70.2547295632488,-33.44017159151866],[-70.25412488477316,-33.43937822347272],[-70.25360246682476,-33.439169024730035],[-70.25095191571374,-33.43884211629595],[-70.25005844414564,-33.438456593508946],[-70.24859422347018,-33.43734655441695],[-70.24599693257404,-33.436733371790474],[-70.2450271464276,-33.43634480957807],[-70.24417987880783,-33.43580332967712],[-70.24368439594488,-33.43511328396177],[-70.24282039810124,-33.43277875015814],[-70.24176128977113,-33.43193645558145],[-70.2412479627734,-33.43086282950538],[-70.23937281136449,-33.43030884272567],[-70.23831461392611,-33.429439467422576],[-70.23624906908431,-33.42609943093552],[-70.23606408800099,-33.4252951372559],[-70.23625117114207,-33.424662827492135],[-70.2361756183351,-33.42395740655401],[-70.23581626167872,-33.42355625576708],[-70.23424523850252,-33.42301836764226],[-70.23212310967929,-33.421400961405276],[-70.2288376670547,-33.419454962278124],[-70.22600105778035,-33.416278567811936],[-70.22509031879585,-33.415504919891895],[-70.22413116241415,-33.41492746072742],[-70.22150959903905,-33.41408776057934],[-70.21898042469596,-33.41226518579266],[-70.21766324835106,-33.40953025044327],[-70.21700332438377,-33.40697828862271],[-70.21695306454195,-33.40442278270945],[-70.21714359990865,-33.403727664045746],[-70.2180814958625,-33.40261101865665],[-70.21815752926815,-33.40191140835521],[-70.21777144593545,-33.400617434076146],[-70.21645535295877,-33.39890479473844],[-70.2133106287285,-33.39581089947693],[-70.2124569830702,-33.39539522550189],[-70.20904315592014,-33.394429998107825],[-70.20720152604439,-33.39327339996786],[-70.20380684828123,-33.391961990966344],[-70.2031819038128,-33.39155053474998],[-70.20055226368497,-33.38671991345869],[-70.19905523653534,-33.38484251524853],[-70.19873684305593,-33.38163267379152],[-70.19794741616066,-33.38006641939747],[-70.19595998073113,-33.37810689941113],[-70.19402404751347,-33.377293161026195],[-70.19344863794645,-33.37666742955816],[-70.19320820475896,-33.37550518038662],[-70.19423960904568,-33.37407712872664],[-70.1944049781097,-33.372453264392114],[-70.19418327120263,-33.371643041067934],[-70.19358990790633,-33.37066077002433],[-70.19219968685073,-33.36961610947506],[-70.19206528361285,-33.36929105334813],[-70.19221718872741,-33.36792340225484],[-70.19183103891937,-33.36662948172616],[-70.18999654795516,-33.364675776648326],[-70.18692159407637,-33.363115298622496],[-70.18297391072939,-33.36286719590316],[-70.18162500768527,-33.36246355648698],[-70.18145433586614,-33.360682497882856],[-70.18056566219997,-33.35916184067626],[-70.1795591592129,-33.358158895531794],[-70.17726077374441,-33.35651129146907],[-70.17731423608024,-33.35554511396475],[-70.17981888102616,-33.3518552640819],[-70.18023687700934,-33.35068709234675],[-70.17909141902089,-33.34900779268914],[-70.17617975460624,-33.347259665945344],[-70.17586800147339,-33.34650448834274],[-70.17591722106613,-33.345614746973084],[-70.17720168885323,-33.34477758085878],[-70.17804516288757,-33.343918725728905],[-70.17848048288099,-33.34244953816705],[-70.17916367051919,-33.34128712686439],[-70.18037278402699,-33.34022182319982],[-70.1820842776625,-33.33805926891891],[-70.18233849998957,-33.33665946858765],[-70.18158816867378,-33.33262230932828],[-70.18158590491927,-33.33105952142454],[-70.18184020809474,-33.329659793247984],[-70.1825599508768,-33.32783242384467],[-70.18269484998468,-33.32538776921481],[-70.18211551388154,-33.32306399197275],[-70.18208050833155,-33.32209436577248],[-70.18263237754658,-33.32011180706445],[-70.18361688438557,-33.31829461532264],[-70.18446573932847,-33.31572907345672],[-70.18632597331377,-33.31245979849357],[-70.18674037154423,-33.311363525700465],[-70.18652599219493,-33.308828734474744],[-70.18732982896567,-33.3070766324734],[-70.18797365961464,-33.3050254897699],[-70.19007333235241,-33.30221121583378],[-70.19290187834875,-33.29741666544764],[-70.19500802434645,-33.29608873863874],[-70.19613595710204,-33.294871344200416],[-70.19710787674727,-33.29327427096112],[-70.19888182215963,-33.29155958801868],[-70.1993040617842,-33.29031498453133],[-70.1990293138512,-33.28725997834809],[-70.19916123773886,-33.28325694226336],[-70.1994874905787,-33.28052248383374],[-70.20047536879497,-33.27862872856749],[-70.20022053741012,-33.27683548530647],[-70.19825461214006,-33.272381959708156],[-70.19839167798442,-33.27149556772636],[-70.19945966166951,-33.26975347138997],[-70.20009005262352,-33.267922422018124],[-70.20086119071792,-33.26676339960722],[-70.20270655039874,-33.26534861222252],[-70.20355296731397,-33.26441759514941],[-70.20453241753623,-33.262671952701446],[-70.20944043944782,-33.26019104280816],[-70.210547654358,-33.25934211405987],[-70.21077283415195,-33.2584590609123],[-70.21038085158277,-33.25755224190614],[-70.2104538163434,-33.25621753375917],[-70.20998994878858,-33.25338042030593],[-70.20906842193583,-33.25245310843991],[-70.20822393370354,-33.250119225131144],[-70.20940383759157,-33.24793552613514],[-70.21042256934456,-33.247083099079944],[-70.21286048832953,-33.246141394198574],[-70.21341781840316,-33.24564048238173],[-70.21464538510351,-33.24420169828799],[-70.21642652691963,-33.240707983119194],[-70.21693986469717,-33.239390239161665],[-70.2166573741847,-33.238870485517154],[-70.21436159203391,-33.23739763167172],[-70.21432000003625,-33.237050000659174],[-70.21521219599666,-33.23724657798802],[-70.21778186818938,-33.23852639244422],[-70.21897911854555,-33.23840482136879],[-70.22082029836535,-33.237352717795616],[-70.2215111719891,-33.236336166731],[-70.22227989002214,-33.23403793161228],[-70.22236853397773,-33.232929803319934],[-70.2231470921564,-33.23165312672245],[-70.22332053168492,-33.23026560412993],[-70.22276000001563,-33.22791000021899],[-70.2207189270788,-33.226970237947285],[-70.22019999998358,-33.22427000084058],[-70.21889780304602,-33.223761591754695],[-70.2175970011921,-33.222981110264065],[-70.2173652115943,-33.221883269556415],[-70.2176422681976,-33.22085362265913],[-70.21787216774005,-33.217448791317636],[-70.2183910301566,-33.216838292656774],[-70.22373753862297,-33.213553841377305],[-70.22615283084254,-33.211381394993325],[-70.22808113287188,-33.20759598422151],[-70.23072461783485,-33.20364875620699],[-70.23113966464895,-33.20333137575761],[-70.23199108697695,-33.20310299124748],[-70.23447298927482,-33.20293697757453],[-70.23559112320727,-33.20268264866223],[-70.2373258930901,-33.20163685033751],[-70.23982033047947,-33.19798091575705],[-70.24019734801433,-33.19673432888405],[-70.23975330448117,-33.19352428534657],[-70.23982766612208,-33.19215355576236],[-70.24015979753715,-33.191720380876795],[-70.24162438113197,-33.19077674029883],[-70.24235358317395,-33.1895391194539],[-70.2426542645709,-33.18806896922802],[-70.2430141233855,-33.18739863098085],[-70.24373083704845,-33.18699670102605],[-70.24361175547605,-33.18567119914955],[-70.24330992423553,-33.1849685313906],[-70.24258135101424,-33.183763933270626],[-70.24154349323051,-33.18260829865607],[-70.2412290550333,-33.181015944482475],[-70.24070400861436,-33.18000872272246],[-70.2376898302561,-33.175835139949115],[-70.23786236877442,-33.17512766616497],[-70.23916688426371,-33.17319712780324],[-70.23996614771134,-33.17036628534418],[-70.24015212861956,-33.1680325934893],[-70.23997098064757,-33.16682244617956],[-70.2392465585412,-33.16468090570318],[-70.2380267838276,-33.16306296703414],[-70.23395679215974,-33.16142548988971],[-70.23257688196695,-33.16057616737886],[-70.23067008470723,-33.15872533911099],[-70.22973948487011,-33.15739216819448],[-70.22931447573953,-33.15552660154675],[-70.22696747883774,-33.15070761247832],[-70.22684280704935,-33.149941826596255],[-70.22689054891343,-33.149270173104675],[-70.22733842106632,-33.148690407588376],[-70.2287469309228,-33.14752596193684],[-70.2307815844986,-33.146307287434404],[-70.23123142486028,-33.14587134595426],[-70.23217736612581,-33.144231984846876],[-70.23608816734219,-33.14270708544087],[-70.23652451590662,-33.141312435981845],[-70.236226787272,-33.140404447288205],[-70.23542103439475,-33.139837089303995],[-70.23484929444565,-33.13969897579915],[-70.23351134186485,-33.13978419799674],[-70.23288252655585,-33.13964656731842],[-70.23190592039978,-33.13908095104458],[-70.22998891648177,-33.1364631120229],[-70.22929503440014,-33.13575082449584],[-70.22837548204438,-33.13518454221148],[-70.22404607488878,-33.13527511265868],[-70.22318545291397,-33.13485206914025],[-70.22173522260076,-33.13299660285459],[-70.22058041674346,-33.13190524037718],[-70.21774077296008,-33.130518767251],[-70.21698683221348,-33.129567233885844],[-70.2164695247807,-33.129236767699496],[-70.21572560833435,-33.12900426691056],[-70.21435760441236,-33.12896965718373],[-70.21269488750015,-33.12821883580065],[-70.20932315360768,-33.1274845194811],[-70.20880045538489,-33.12677045211543],[-70.20777044169023,-33.126444774381284],[-70.20667492913326,-33.12549656047184],[-70.20460766850925,-33.12431804774997],[-70.20408773260596,-33.12379574375856],[-70.20373612661388,-33.12308000103118],[-70.20308403685418,-33.11913106013318],[-70.20305527729035,-33.1170218661262],[-70.20276059484287,-33.11630557010525],[-70.20119976574851,-33.11464265336728],[-70.20055617584804,-33.11340230779637],[-70.20001621020884,-33.111393939914485],[-70.1990970099927,-33.11082750354752],[-70.19390070792664,-33.10991856373565],[-70.19224952538269,-33.10998225188311],[-70.19022007664564,-33.109450379452916],[-70.1879766905304,-33.1078417605077],[-70.18624611039006,-33.10622814572936],[-70.18571930686642,-33.105178418517845],[-70.18540751690266,-33.10316780829751],[-70.1848282796142,-33.10245424608027],[-70.1843118049197,-33.102171437126074],[-70.18373965264388,-33.101985135558664],[-70.18282844743374,-33.10199378651127],[-70.17948155285718,-33.103032294974845],[-70.17880379014503,-33.10347013630582],[-70.17852488660549,-33.103904276155184],[-70.17820802924521,-33.10577706460395],[-70.17719562971665,-33.10674554193465],[-70.17367884844849,-33.10788133356327],[-70.16113512865559,-33.111354808617406],[-70.1558604360046,-33.113129783586054],[-70.15562814335024,-33.11279634064205],[-70.1549664712614,-33.11011769880671],[-70.15293028785466,-33.10687641277019],[-70.15549763071587,-33.10500684885501],[-70.15740155606164,-33.102496215309685],[-70.15874083365748,-33.1003742803844],[-70.15872501791858,-33.099175822348485],[-70.15688748615713,-33.09804223982642],[-70.15224490114066,-33.09583203971695],[-70.15109339749034,-33.09488376402051],[-70.1501477975846,-33.09443704835221],[-70.1488967543126,-33.094592445347374],[-70.1479930033227,-33.095175989335914],[-70.14719694057243,-33.09527922475423],[-70.14645285973438,-33.094998425427235],[-70.14524446577711,-33.09405069163173],[-70.14444281909904,-33.09372245645452],[-70.14364428238848,-33.09363395266425],[-70.14210656514973,-33.09364805168474],[-70.1387564680792,-33.09444573316137],[-70.13710489566641,-33.09446081040946],[-70.13636085345591,-33.09417994976662],[-70.13520214441871,-33.092656372668706],[-70.13238695906557,-33.09076421758273],[-70.13186773193306,-33.090241520677296],[-70.13163261048382,-33.089668437019554],[-70.13168088325226,-33.088996725835464],[-70.13207029753804,-33.088274111778645],[-70.13222756739144,-33.08721785845749],[-70.1315239817081,-33.08564215579475],[-70.13042426773055,-33.0842617806786],[-70.13006658553387,-33.083018457730404],[-70.12980759045767,-33.08057577335176],[-70.12910900210225,-33.07938348863742],[-70.12703842220328,-33.07777217642312],[-70.12593879087072,-33.07639183059424],[-70.12427291278705,-33.07525620192289],[-70.1179823495172,-33.07315529972916],[-70.1133295892835,-33.07221406783792],[-70.11292680896462,-33.07188206255031],[-70.11380761249058,-33.06947703623818],[-70.1143678459192,-33.06875294891971],[-70.11577854497003,-33.067733530376444],[-70.116111659142,-33.06705927201568],[-70.11602938603839,-33.065046401849514],[-70.11527831271418,-33.064190176990316],[-70.11174235510967,-33.0614649702738],[-70.10766911333711,-33.05900821380809],[-70.10327680614529,-33.053773342050036],[-70.10224025002042,-33.052823652911684],[-70.10092670376757,-33.05249965128373],[-70.09939521724364,-33.05294459594645],[-70.09774312021473,-33.05286331397513],[-70.09508811435822,-33.052239386718675],[-70.09365049549328,-33.05144350905937],[-70.09166742587604,-33.052424021995],[-70.08934208376247,-33.05466944142516],[-70.08767072865051,-33.055706797384744],[-70.08607217660241,-33.0564452814835],[-70.08451796449843,-33.05786099506542],[-70.08404704247367,-33.05856289624011],[-70.08332132948824,-33.05896650239089],[-70.0806899960361,-33.059691053444496],[-70.07968849037698,-33.06044851720288],[-70.07895550193605,-33.06142383972727],[-70.07621437638988,-33.06321575993135],[-70.07461883010474,-33.06469717395475],[-70.07304670200074,-33.070462072061055],[-70.07312049590638,-33.07103237512634],[-70.07156424193177,-33.074568851361875],[-70.07092629884117,-33.077574216845676],[-70.07019474680638,-33.07944108990426],[-70.07015160521486,-33.08059663749038],[-70.07072238127166,-33.08164154747524],[-70.06994694563694,-33.08267806617073],[-70.06933527198021,-33.0847297348505],[-70.06783500370905,-33.08608877314494],[-70.06741851240396,-33.08679280420523],[-70.06749983868328,-33.08781369308208],[-70.0683945984355,-33.08993867602641],[-70.06913006622659,-33.09087297333489],[-70.06933877720644,-33.09151622988025],[-70.06939826544118,-33.093094645747904],[-70.07053760141099,-33.09429272235197],[-70.07083610619001,-33.09535371092676],[-70.07006319122797,-33.096223736355824],[-70.06925576029778,-33.09763728147624],[-70.06863406683236,-33.099377885067696],[-70.06707121742693,-33.101405328654316],[-70.06600026570814,-33.10317762175902],[-70.06659714141719,-33.10425956252928],[-70.07077865623263,-33.10762715551176],[-70.07132819970938,-33.108252405620995],[-70.07249466030919,-33.11143287179816],[-70.07324970149202,-33.112903769695464],[-70.07326821038012,-33.11353047806389],[-70.07355964901112,-33.11409587296638],[-70.07433544666691,-33.1150543163002],[-70.07621735879664,-33.11662837368134],[-70.07649099102207,-33.11851703240877],[-70.07623866683517,-33.120110246858495],[-70.07592985029501,-33.12082297953409],[-70.0750836453822,-33.122054906887136],[-70.07413279931521,-33.123016931773975],[-70.07279234492634,-33.123634732585415],[-70.0696536708495,-33.12454157968904],[-70.06592563906422,-33.12675774114835],[-70.06487748119744,-33.12688736343553],[-70.06407112105907,-33.12718854982317],[-70.06071784485074,-33.12881601288193],[-70.0578373070607,-33.13071896672401],[-70.05688301056468,-33.131914894157894],[-70.05592014953078,-33.13272770287971],[-70.0543866265261,-33.133526789084826],[-70.05234054188831,-33.13501697888973],[-70.05219960700002,-33.13539403916715],[-70.05207488400764,-33.137564083026234],[-70.0524613931418,-33.13907907355152],[-70.05349934974019,-33.1407279814024],[-70.05406490748351,-33.141142290832235],[-70.05449994360929,-33.142150285573486],[-70.0561266488584,-33.143493903273004],[-70.05664748487361,-33.14419009272377],[-70.05685955824758,-33.145608054305484],[-70.0564585844407,-33.14905050307094],[-70.05881835269089,-33.14954516864565],[-70.06119660916794,-33.150639379586515],[-70.06302727690229,-33.15100030114628],[-70.06378382635648,-33.151386186274365],[-70.06626417995882,-33.1529526791452],[-70.06712443362434,-33.15474758602007],[-70.06722500181704,-33.15534144724915],[-70.06637554320626,-33.15881569198751],[-70.06519749344099,-33.16043963267035],[-70.0638915738849,-33.16348138213667],[-70.06303684396006,-33.1643300425845],[-70.06267527834642,-33.16590524068014],[-70.05873931442062,-33.17034196859641],[-70.05756243066858,-33.17085810269542],[-70.0572988937103,-33.17121234214932],[-70.0574414554476,-33.17169989888049],[-70.05949923615039,-33.17445659580446],[-70.06071075624484,-33.177395802880305],[-70.06220625536015,-33.178441492937374],[-70.06361292456862,-33.17899723536954],[-70.06479349949817,-33.179201712805245],[-70.06507652271158,-33.179420142686304],[-70.06513145199625,-33.18037252702492],[-70.06479568689588,-33.182106438866214],[-70.06407249548145,-33.18323046899374],[-70.06380259845096,-33.18510205826047],[-70.06211620733777,-33.190078527095814],[-70.06077692614866,-33.19252446922681],[-70.06036483479186,-33.193827514675824],[-70.06075585257041,-33.19507694609381],[-70.06321486669317,-33.19832696185765],[-70.06396908052763,-33.198928831733056],[-70.06472570454198,-33.20030981786793],[-70.06471204655641,-33.20334892376672],[-70.06421546954543,-33.20583297936485],[-70.06313167640967,-33.20746953877975],[-70.06167166434132,-33.21175697772672],[-70.0596659976031,-33.214185461397534],[-70.05892627988239,-33.21654713754097],[-70.05805031108929,-33.21792630736371],[-70.05759062878535,-33.219713780486465],[-70.055855005503,-33.22223847272548],[-70.05519264979624,-33.22587313789137],[-70.05360509133061,-33.226530299452904],[-70.05060570283518,-33.22687907090154],[-70.04995362385529,-33.226803522608456],[-70.04869737843946,-33.22613649951878],[-70.04719346210995,-33.22661687400244],[-70.04603251087777,-33.22788996611552],[-70.04452945872754,-33.22834333417691],[-70.04060384519045,-33.228771901915],[-70.03888007966985,-33.228414803858435],[-70.03790996024844,-33.22865520308903],[-70.03144408266608,-33.231670243005205],[-70.03077810135883,-33.23160305825109],[-70.02841012430359,-33.232566421764716],[-70.02794385734863,-33.23282688689311],[-70.02783389187977,-33.2338807648497],[-70.02701023737553,-33.23433857709396],[-70.02662100365112,-33.234939907784856],[-70.02654723220337,-33.23634644616969],[-70.02689268473576,-33.23789581973424],[-70.0273316905168,-33.23864732320365],[-70.02938610074064,-33.24065248396762],[-70.02950208222698,-33.241147973507886],[-70.0286799288076,-33.24443374553008],[-70.02790166527636,-33.24656857574499],[-70.02878109976984,-33.2488958436402],[-70.03048507720136,-33.2497386054515],[-70.03102038777075,-33.25036346515433],[-70.03150798612045,-33.25152225742851],[-70.03269522385445,-33.252312823343935],[-70.03396869087257,-33.253755304362265],[-70.03465983488925,-33.25541304884261],[-70.03476397029193,-33.257853336850076],[-70.03542336425319,-33.259730489000184],[-70.03641398682264,-33.26144978655539],[-70.03829519916478,-33.2687704712231],[-70.03862467875311,-33.26936450409764],[-70.03871776308115,-33.27022842302762],[-70.03818664584752,-33.27090959029194],[-70.036052851502,-33.27122049994118],[-70.03503043665633,-33.27120655564567],[-70.03417327768696,-33.27184771229042],[-70.03112052567042,-33.27315293949972],[-70.03024964224014,-33.27377549050665],[-70.028796055821,-33.27561755940316],[-70.02728943466416,-33.27664685119491],[-70.02497794906385,-33.277017929885396],[-70.02190741040468,-33.27708835490795],[-70.02088780548922,-33.27760130687914],[-70.01674754310825,-33.28083927474805],[-70.01245360772828,-33.28213912199233],[-70.01142561883626,-33.2831019637175],[-70.01030903000608,-33.283714478556185],[-70.00930573220796,-33.28483137826336],[-70.00879611974392,-33.285787991271896],[-70.00619905252829,-33.286070677236545],[-70.00630964142796,-33.286692057782815],[-70.00712914661389,-33.28808047991411],[-70.00758643041601,-33.290544006301815],[-70.0092266526152,-33.2939332608926],[-70.01205099000444,-33.29895070298222],[-70.01284136552064,-33.30113485778363],[-70.01271305645369,-33.30142236225521],[-70.01044053617716,-33.303258254249975],[-70.01011757476452,-33.30373604624203],[-70.00980615041509,-33.30862729200569],[-70.00883229130714,-33.30957422837146],[-70.0086914705049,-33.31123013754507],[-70.00835938490391,-33.311468975619356],[-70.00807384550939,-33.31215090203471],[-70.00794875510609,-33.31296540931683],[-70.00814859342587,-33.31395061722644],[-70.00924675780956,-33.316462490767634],[-70.00777012062025,-33.31802860842887],[-70.00609499527904,-33.31926700416175],[-70.0049593361137,-33.32086032563542],[-70.00359428944563,-33.32227771779782],[-70.0029182829398,-33.32266923480094],[-70.00165071425982,-33.3227577092272],[-69.99965582101682,-33.322082865395764],[-69.99858739176733,-33.32064830441366],[-69.99644381566668,-33.31983229706034],[-69.9953479725297,-33.31841011945586],[-69.99464784176692,-33.31786401408458],[-69.99403539196578,-33.3177538014208],[-69.99243737441529,-33.318684324619284],[-69.9914153934559,-33.31857101502464],[-69.99101021553352,-33.31830699972712],[-69.99062501434642,-33.31769252681276],[-69.98532945293306,-33.31520438717629],[-69.9836762887056,-33.31367406474488],[-69.9820941461828,-33.312821957367376],[-69.97993442645817,-33.31217617181221],[-69.97310092682054,-33.31121474924734],[-69.97151724099206,-33.31041652843918],[-69.96940023795585,-33.30890323287559],[-69.96870381543857,-33.307294454761085],[-69.96887251186241,-33.30615756968777],[-69.9687795299423,-33.30436172983478],[-69.96901949600583,-33.30303410171034],[-69.96829726219548,-33.30218973470685],[-69.96853475160378,-33.30098810533105],[-69.96772207451232,-33.29981586302262],[-69.96746231676647,-33.29901731712867],[-69.96608255030412,-33.297488833979465],[-69.96505864695003,-33.295889299303745],[-69.96158159187871,-33.29247894279021],[-69.9593789614296,-33.29120515465077],[-69.95853809789948,-33.29013081889179],[-69.95653822798978,-33.2889822789465],[-69.9542213354298,-33.28884300393216],[-69.95311253229819,-33.28825753116357],[-69.95252184687976,-33.286855612351935],[-69.95069871151907,-33.284921676087656],[-69.9504149391107,-33.28316310793191],[-69.94984164956773,-33.28232022176289],[-69.94965023744531,-33.28157394296414],[-69.94931076230282,-33.28145203451379],[-69.94866049702146,-33.28203797723824],[-69.94622118834278,-33.28269953998249],[-69.94483145058079,-33.28340384169217],[-69.94346404493676,-33.28441976408425],[-69.94279302767403,-33.28459501897615],[-69.94150827332437,-33.28307920124619],[-69.94016264374116,-33.27955718944423],[-69.93923505865013,-33.278771830462475],[-69.93850382821222,-33.27761628279368],[-69.93672907790938,-33.27612997101769],[-69.9300733413917,-33.27498611802589],[-69.92894351319087,-33.27334244486542],[-69.9254795735227,-33.27075964602941],[-69.92385741554557,-33.268524035397824],[-69.92122176479018,-33.26767638488534],[-69.91899459057089,-33.26739084301107],[-69.91812825441257,-33.267443736144905],[-69.9168335449329,-33.2670805123461],[-69.9168360665039,-33.266909442741486],[-69.91764754883603,-33.26651495341467],[-69.91761775351468,-33.26427141715245],[-69.91683286760318,-33.26073612335309],[-69.91608431854492,-33.259066451378416],[-69.91596206142802,-33.258205890226286],[-69.91536037344397,-33.25670884107019],[-69.91542781626056,-33.25589828273528],[-69.91733852658166,-33.253342497231124],[-69.91756695917528,-33.25214324981547],[-69.91922307616507,-33.24825997419417],[-69.92101871409493,-33.246414466677116],[-69.92134642759542,-33.24580956892391],[-69.91801642314284,-33.2447016356575],[-69.90842138913408,-33.26988986343476],[-69.90433547931937,-33.272929735552296],[-69.9004005277949,-33.27333687584496],[-69.89846891457545,-33.27422870469144],[-69.89475300016503,-33.27540852919003],[-69.89331685094388,-33.27561953836281],[-69.8920225097735,-33.27551216302634],[-69.89024153684066,-33.27598362712255],[-69.88803542541983,-33.27735155847329],[-69.88740811389061,-33.278122627309415],[-69.88669157539918,-33.27856146425731],[-69.88611694197657,-33.27863671622904],[-69.884137769251,-33.277956260371624],[-69.88270945513578,-33.27693375068147],[-69.88126122357409,-33.27630666724363],[-69.88048447280578,-33.27625210019113],[-69.87869017067075,-33.27670930745508],[-69.87768014538948,-33.27673506289512],[-69.87554768324554,-33.2762147060028],[-69.87347060583211,-33.27643058960886],[-69.87215227335544,-33.27696142340115],[-69.86968056603769,-33.27865112646128],[-69.86773925999633,-33.279669499089806],[-69.86583704953443,-33.28005449504971],[-69.86129385322266,-33.28240577981019],[-69.85978380858624,-33.2829690655259],[-69.85910390159549,-33.28282828048415],[-69.85709349085424,-33.28003883840523],[-69.85537117341788,-33.27869765929888],[-69.85399337157106,-33.277960564399635],[-69.85282576741592,-33.27765994882385],[-69.85004780645153,-33.275847209298135],[-69.8489898066425,-33.27550605565627],[-69.84711894918065,-33.275666965037544],[-69.84624740638694,-33.27554965514934],[-69.84303094629134,-33.27390761409992],[-69.8406132223323,-33.27179895266065],[-69.83732249941046,-33.27279205569408],[-69.83517796121414,-33.27293689532557],[-69.83356867789168,-33.273684808633476],[-69.83183012879644,-33.27555290334936],[-69.83158335799463,-33.27638469242924],[-69.83161031913124,-33.27718716298203],[-69.82994681978643,-33.27788773384852],[-69.82878187913612,-33.279694248827525],[-69.82817173890355,-33.28024509013897],[-69.82615711416533,-33.28077342474214],[-69.82509953746279,-33.28043657322956],[-69.82434766823124,-33.280540276195694],[-69.8238342837413,-33.281018562092356],[-69.82366201202264,-33.281484166609836],[-69.82164635242519,-33.282809250244924],[-69.82131486330556,-33.28381299977377],[-69.82059056067514,-33.28463816786497],[-69.81748899061279,-33.28714251658229],[-69.81668082036911,-33.288103799015225],[-69.81555097240535,-33.288713926130846],[-69.81442400533871,-33.28915297264833],[-69.81190353477241,-33.28898451967193],[-69.8100347721818,-33.28972569802081],[-69.80865725150768,-33.289722107183664],[-69.80657731026514,-33.28927928644853],[-69.80533853528496,-33.28839437638947],[-69.80338356317317,-33.287902738207485],[-69.80165073275303,-33.2871683170034],[-69.80089647040957,-33.287366250389425],[-69.79991491184134,-33.28810850278368],[-69.79950516149415,-33.28885674867103],[-69.79909141274565,-33.28985239845938],[-69.79878858527347,-33.29147405696675],[-69.79820539449946,-33.29278230736008],[-69.79812152149633,-33.29362975690786],[-69.79701872899228,-33.29570859636209],[-69.79581679931181,-33.299530130452666],[-69.79383958760852,-33.30093742263662],[-69.79329444587667,-33.30166198175144],[-69.79299263170414,-33.30393649696199],[-69.79225629883541,-33.305395836661965],[-69.79202642354748,-33.30675492924247],[-69.79114632699564,-33.30787048896225],[-69.79070252960089,-33.309017993456095],[-69.78785652754192,-33.31163576362598],[-69.78651787607181,-33.313186814271994],[-69.78560490477385,-33.31385071422353],[-69.78421486068635,-33.31447653843758],[-69.78379563940115,-33.31503068764618],[-69.78339578579345,-33.31669776756935],[-69.78332407957251,-33.31839211187089],[-69.78195960333464,-33.31981145832517],[-69.78157289836777,-33.32080828157201],[-69.78076539736898,-33.321656647047874],[-69.7795156359929,-33.325057301962055],[-69.77856189735068,-33.326421867589026],[-69.77838681570181,-33.32775620628097],[-69.77700508462397,-33.32867493928801],[-69.77660840296754,-33.329142621450146],[-69.77639499020549,-33.33080318384276],[-69.77664498685748,-33.331743185195045],[-69.7766349841168,-33.332693184816264],[-69.77587652843758,-33.333297640439945],[-69.77585749134006,-33.334298826065975],[-69.77544621116196,-33.33504160365469],[-69.77477245763089,-33.33538386113706],[-69.77251472362394,-33.33923110881613],[-69.77121973207328,-33.340811648759406],[-69.77092229898442,-33.341584973837996],[-69.76981355693825,-33.34316491873368],[-69.76961359554926,-33.345927489299775],[-69.76991391762009,-33.350510867224514],[-69.77073996523625,-33.35260506842873],[-69.77078132187529,-33.35388211117522],[-69.77026815657428,-33.35606037470262],[-69.77035617889571,-33.35752236584185],[-69.77166883132485,-33.3622622222596],[-69.77245125675081,-33.363789718761176],[-69.7724430048266,-33.36468566134077],[-69.77322388604857,-33.36636807665],[-69.77360414290835,-33.370574660910435],[-69.77521027853406,-33.3768635768767],[-69.77769052883014,-33.380812800144135],[-69.77822529861373,-33.383774646028364],[-69.78273674307346,-33.38840033196483],[-69.78482521112468,-33.39110871224208],[-69.78690723915363,-33.39286356549862],[-69.78964668305358,-33.39433948824768],[-69.7915484946635,-33.39473104495901],[-69.79365895976109,-33.395659430809445],[-69.7952431675107,-33.39685221692009],[-69.8157284615392,-33.39113845480851],[-69.81245512371305,-33.39301229397694],[-69.80969126270537,-33.395139047375935],[-69.8071992597504,-33.39657886390856],[-69.80524597377641,-33.39881186264595],[-69.8023346183822,-33.403237433318786],[-69.80100863405595,-33.40401465064871],[-69.80011187195895,-33.405287160629044],[-69.79870372232692,-33.40832568370773],[-69.79770276284347,-33.411498265083736],[-69.79711028348942,-33.41269081051672],[-69.79707329805252,-33.41515176390638],[-69.79745693527273,-33.41595878941512],[-69.79773378706014,-33.417282783168574],[-69.79684210044448,-33.41889555291798],[-69.79621688109158,-33.41963250005028],[-69.79579520830396,-33.42221604204097],[-69.79603614544631,-33.42301169704623],[-69.79718472777532,-33.424092297677255],[-69.79851317438379,-33.42443704489206],[-69.803694934522,-33.42403521030097],[-69.80594292719802,-33.424331934991336],[-69.80716290762581,-33.42417607454478],[-69.80928343744785,-33.42568475508457],[-69.81089041928655,-33.42643372946289],[-69.8116238910211,-33.42700882994783],[-69.81695283832198,-33.4287085029936],[-69.81807560935795,-33.429295743353585],[-69.81864856113437,-33.43011218103661],[-69.81903779755372,-33.43128566719603],[-69.81916939086136,-33.433042639350795],[-69.81862246417705,-33.435338514784775],[-69.81620488125348,-33.43827179437685],[-69.81463289957487,-33.43977730416605],[-69.81448222605059,-33.442855084530116],[-69.81519190051493,-33.44438416158003],[-69.81570232864927,-33.44488737191496],[-69.81583755384561,-33.44568091220104],[-69.8181814479664,-33.449088414526614],[-69.81920357804613,-33.451495097496256],[-69.82134119921476,-33.45270119158874],[-69.82136278483271,-33.45605638374457],[-69.8211703737837,-33.45762870643253],[-69.82134296620092,-33.4601617968306],[-69.82077244077408,-33.46148858609094],[-69.81938361570043,-33.46193023038937],[-69.81709688677107,-33.465166255873015],[-69.81674317961951,-33.46659215671068],[-69.81551308865319,-33.46807591533474],[-69.81513360344626,-33.469370167769085],[-69.81668526253819,-33.47125417924054],[-69.81759046879887,-33.47185053351039],[-69.81941529209398,-33.47222867679566],[-69.82219138186763,-33.47369562983675],[-69.82599081803993,-33.474512079737636],[-69.82786302656797,-33.4760807550214],[-69.82941058664726,-33.47896401375249],[-69.82996524423292,-33.48079275139085],[-69.82994264262037,-33.48433973317543],[-69.83011951191666,-33.48589148707022],[-69.8303894251168,-33.48685278380622],[-69.83179654797449,-33.489221369592855],[-69.83226631207086,-33.494247710202714],[-69.83253761855802,-33.49512808634824],[-69.8320102643671,-33.497091601886545],[-69.83232347007575,-33.500211400759504],[-69.83182978204674,-33.50103270723293],[-69.83170982731191,-33.50164905613862],[-69.83281534350789,-33.50405459492071],[-69.83296842811039,-33.505690875628765],[-69.83255712816936,-33.50772232491525],[-69.83349714324898,-33.51047209107996],[-69.83504441946064,-33.51360743123026],[-69.83536299619637,-33.515376767527094],[-69.83855772784189,-33.51814421770669],[-69.84335161430504,-33.51965004393047],[-69.84695969225382,-33.520309457010164],[-69.84812538120079,-33.52078580034638],[-69.85119654508739,-33.52296245706161],[-69.8561597100827,-33.525564555862175],[-69.85702774405691,-33.52719910356711],[-69.85748217391136,-33.529676439555914],[-69.86036204425318,-33.53256082480615],[-69.8615485714198,-33.533335095130504],[-69.86315141382167,-33.5338564991119],[-69.86534381964621,-33.53492021883759],[-69.8699317978732,-33.53783941743346],[-69.87096738381759,-33.5386703648764],[-69.87152515316738,-33.539477035082044],[-69.87195510303205,-33.54184069679166],[-69.87197207041113,-33.5437233925827],[-69.87158656020357,-33.5445133524075],[-69.87178231118884,-33.54761928567391],[-69.87282772739735,-33.55267858551322],[-69.87408298736129,-33.55545474896904],[-69.87365579891782,-33.55698134579343],[-69.87275347714755,-33.5589925793433],[-69.86907739224019,-33.564859783435296],[-69.8688203662711,-33.566064802302],[-69.86914854420058,-33.57204886933901],[-69.86850387183019,-33.573521412038005],[-69.86810083728808,-33.573819778832416],[-69.86760117366579,-33.57616742527136],[-69.86690820337417,-33.5779531250631],[-69.86600277882287,-33.582093832756044],[-69.86557007831682,-33.58317446824384],[-69.86540347586592,-33.58462185213325],[-69.86564651057446,-33.58677965328244],[-69.86590364703633,-33.58823567152051],[-69.86665495482085,-33.590261574256225],[-69.8673184100655,-33.59395869075571],[-69.86768353749926,-33.59482035808967],[-69.86753964805199,-33.59582752697584],[-69.86920408344133,-33.59606779060234],[-69.87043487509357,-33.59675838093275],[-69.87182028746746,-33.59791452289486],[-69.87402275172823,-33.60058150601929],[-69.87478686320048,-33.60200909357098],[-69.87482530929802,-33.60283462765598],[-69.87437415290445,-33.6048060234788],[-69.87494366682827,-33.60639656906587],[-69.8751587765079,-33.607918394783596],[-69.87575150649194,-33.6090506139958],[-69.8765971867886,-33.60982861115376],[-69.87817773839502,-33.612861505549084],[-69.87954091656732,-33.616452568511946],[-69.88085121810536,-33.61864565693541],[-69.87720354691044,-33.62154251027154],[-69.87618522299256,-33.62335071679613],[-69.87500846051309,-33.624135556387564],[-69.87494574013996,-33.62472804692474],[-69.87609557831372,-33.630493286947775],[-69.8757168584714,-33.631546901289106],[-69.87483510362955,-33.63248037779253],[-69.87399754679801,-33.63409842339546],[-69.87382624885309,-33.63659210449234],[-69.87447049452372,-33.63847591591386],[-69.87476498742669,-33.64065384376143],[-69.87502761978146,-33.64123161781244],[-69.87577627214598,-33.64181382206561],[-69.87699689397091,-33.64324983771319],[-69.87747168144634,-33.646090895504585],[-69.87723374018545,-33.64656679104451],[-69.87669836224242,-33.64674525549372],[-69.875745745596,-33.64806332311426],[-69.87429036793621,-33.64938529648771],[-69.87262576186698,-33.65036335721465],[-69.87082576531137,-33.65095337536953],[-69.87031576657174,-33.65131338151984],[-69.86996928367171,-33.65185998180754],[-69.87038807735884,-33.65279272812973],[-69.8753754896803,-33.65816456117183],[-69.8759275286769,-33.65850719982487],[-69.87925613984248,-33.65859902625854],[-69.87993060394095,-33.661832189049626],[-69.88107797803589,-33.66531531282216],[-69.88212841403023,-33.67087457892627],[-69.88231825589753,-33.67231432166162],[-69.88155731368161,-33.673394830767904],[-69.882266173374,-33.67824650342055],[-69.88397767958591,-33.68163150653099],[-69.88433104627597,-33.683775881390375],[-69.88272758044326,-33.685857041460835],[-69.87796454033032,-33.68842369960294],[-69.87335122512074,-33.69437341763551],[-69.87309916593686,-33.69598386077478],[-69.8725916447508,-33.69734955939372],[-69.87197248273785,-33.69815674710086],[-69.87164853138177,-33.69927784881989],[-69.87112586100675,-33.703394025949024],[-69.8693139671635,-33.7062722037713],[-69.86909196381241,-33.707726309925135],[-69.86922820949492,-33.70912322174414],[-69.86457181288094,-33.71506168035506],[-69.86426859643825,-33.71647637460178],[-69.86455470626298,-33.717244677255714],[-69.86562457371521,-33.717825072110344],[-69.86649941961423,-33.71858200158951],[-69.8689924879711,-33.7232829529613],[-69.87173562574351,-33.7258060820251],[-69.873123646825,-33.726939910171936],[-69.87417968112018,-33.727551135025706],[-69.87470892626476,-33.72983797994689],[-69.87538305888488,-33.73100084118188],[-69.87765657090148,-33.73357346576324],[-69.8778865872249,-33.735143465093444],[-69.87775369225841,-33.73572788950899],[-69.87688192129262,-33.73681277295875],[-69.87669100593857,-33.73743969433293],[-69.87658348748052,-33.73798903769154],[-69.87687391640515,-33.738563925670185],[-69.87949469914426,-33.740466826693954],[-69.88025230681386,-33.74153134388878],[-69.88275133639095,-33.74407214537336],[-69.88496423458376,-33.74496444314523],[-69.88589222391667,-33.746070891680034],[-69.8880612079668,-33.74751617528574],[-69.8894226236445,-33.74869667699604],[-69.88991384400143,-33.7495811182939],[-69.89335367288737,-33.753747727570506],[-69.89645702969881,-33.7557077097693],[-69.8997892449053,-33.76078606733008],[-69.89961793797725,-33.76215664090012],[-69.90030323575805,-33.763584313333276],[-69.90064590620801,-33.76632545361242],[-69.90272245002215,-33.768540391284226],[-69.90292460509706,-33.76963674492224],[-69.90390105404798,-33.77038003127901],[-69.9037920219287,-33.771061523838696],[-69.9042063716501,-33.77319745042542],[-69.90417311422165,-33.77465494609548],[-69.9038224918848,-33.77602502083376],[-69.90395822283266,-33.776890248655356],[-69.90344427689567,-33.77871768421959],[-69.90258768476323,-33.78043090661283],[-69.90018919642938,-33.78174439407683],[-69.89836176891824,-33.78202994732447],[-69.89778050143725,-33.7828292201748],[-69.89697757196494,-33.78459126472417],[-69.89688672264529,-33.78528169991746],[-69.89512383549408,-33.78991751376355],[-69.89356130229562,-33.79133407913135],[-69.89373618721345,-33.79225217553731],[-69.89426988710352,-33.79341838065194],[-69.89499425531099,-33.79439760937462],[-69.8952781130593,-33.79562148339423],[-69.89544946580142,-33.79887659116369],[-69.89533528184398,-33.80201748647368],[-69.89283909094317,-33.805598593199996],[-69.89308531287433,-33.80749979693158],[-69.89394193465117,-33.80909878889714],[-69.89634045981597,-33.81144016072417],[-69.89668312487605,-33.81389576536727],[-69.89651184399914,-33.81806459052037],[-69.89668319943621,-33.82154812705025],[-69.89605503181255,-33.82274738230219],[-69.8947458235242,-33.82379908833771],[-69.89457675340121,-33.824570628524214],[-69.89479532698458,-33.82582864227361],[-69.89472057457654,-33.82737579535885],[-69.89478197442618,-33.827873681829],[-69.89552976171309,-33.82841793291666],[-69.89710197066549,-33.82885688620312],[-69.8976798182602,-33.82974088492478],[-69.89767125641723,-33.830429376140664],[-69.89726481905682,-33.8310474721122],[-69.89576480950045,-33.832408046554924],[-69.89569303321093,-33.83471034738823],[-69.89528545409179,-33.83644494225944],[-69.8963565064219,-33.83740796367723],[-69.89795705542485,-33.839896760764084],[-69.89878084647302,-33.84296119561744],[-69.89900511807022,-33.844676934067735],[-69.8983349533087,-33.847580332842504],[-69.89775017700819,-33.848213470798235],[-69.89353649352242,-33.848187122753046],[-69.88999322542814,-33.84935023244465],[-69.88834741750452,-33.85028584264552],[-69.88753553003221,-33.85045023995034],[-69.88627294251049,-33.85040221398853],[-69.88561618151131,-33.851243863306486],[-69.88551719884511,-33.85354509270651],[-69.88454737137616,-33.855211283874524],[-69.88043970256865,-33.85748964193291],[-69.87863491439931,-33.8589588699007],[-69.8750558807803,-33.85968324908982],[-69.87321481055496,-33.860786131216074],[-69.87283935069881,-33.86315676265721],[-69.86954534263799,-33.868134234917875],[-69.86937923066722,-33.87025247567146],[-69.86962686475,-33.873220978215315],[-69.86950957980821,-33.87579605082131],[-69.86763515783132,-33.87932423552571],[-69.86755557338535,-33.881167024319446],[-69.86713850087028,-33.881505232940206],[-69.86613171491392,-33.88184138039965],[-69.86525262267857,-33.88184075991777],[-69.86318368040837,-33.8825241911144],[-69.86212483708128,-33.88361455596219],[-69.86096101213853,-33.8843628345323],[-69.8576211890999,-33.88560088221997],[-69.85682320754819,-33.88570706041766],[-69.85654959867895,-33.886632182524004],[-69.8566538266081,-33.89001336909978],[-69.856410918562,-33.89069661178773],[-69.85538740687338,-33.892238602949945],[-69.86051042976842,-33.897176083939804],[-69.86170595895251,-33.89812655533138],[-69.8628293722839,-33.898344620249006],[-69.86351175233666,-33.899714911716906],[-69.8643633965485,-33.90068254328348],[-69.86646178739035,-33.90189585008127],[-69.86682544248535,-33.90241533515516],[-69.86977191122736,-33.904951731452954],[-69.87281950601586,-33.90706459233573],[-69.8750838857593,-33.911287879447094],[-69.87545641171774,-33.91422553940314],[-69.8786491661713,-33.9147818805968],[-69.8800585303256,-33.91522337636217],[-69.88142053619646,-33.915014527022116],[-69.88399013113407,-33.91603553744855],[-69.88517565218757,-33.91675578157485],[-69.88643394216896,-33.91817691151455],[-69.88744122669031,-33.918898711925785],[-69.88883552430066,-33.919388975628166],[-69.8902606179556,-33.920700035262676],[-69.89066504668305,-33.92127515248204],[-69.89087202211778,-33.92221578027776],[-69.8916661013879,-33.923441990678896],[-69.89202156564413,-33.92462290726293],[-69.89207033877418,-33.925093247210086],[-69.89148715518667,-33.926545823587155],[-69.89168907939454,-33.92790945053306],[-69.89157066976199,-33.93159214014689],[-69.89182216031232,-33.93231855824946],[-69.8926882656036,-33.933327103005276],[-69.89405804639321,-33.93571192217914],[-69.8934401384284,-33.93772137263542],[-69.89218410142175,-33.94022652755817],[-69.89235338534378,-33.940895468762754],[-69.89312294509823,-33.94193610730181],[-69.89350687247423,-33.94301463361437],[-69.8940324722554,-33.94378848204703],[-69.89530640370253,-33.94516063614774],[-69.90070588132964,-33.94939226163344],[-69.90056010721692,-33.95103871239452],[-69.90080519098262,-33.953264182242826],[-69.90050705541118,-33.95609294205591],[-69.90127132768187,-33.9574754068097],[-69.90390180863281,-33.96023666494869],[-69.90421835607431,-33.96123585681843],[-69.90593447693183,-33.96346386808083],[-69.90549195244984,-33.964719684919906],[-69.9044549687269,-33.9662255204208],[-69.89961525650614,-33.971472631184845],[-69.89762323427875,-33.9724389716071],[-69.89535867936387,-33.97318687997221],[-69.89445171689681,-33.97317160804235],[-69.89327679596367,-33.97365858830585],[-69.89132216790664,-33.97491453546015],[-69.89040956042635,-33.97529527020285],[-69.8853616456722,-33.975467705938804],[-69.88389498786736,-33.976221556167104],[-69.88236381305886,-33.9766214494377],[-69.88163513383635,-33.976604656207925],[-69.88090958703927,-33.97635821706004],[-69.8804915569201,-33.97578250723017],[-69.88009305617524,-33.974734710848594],[-69.88016823797798,-33.9732700925724],[-69.87982292019288,-33.97130602284279],[-69.8790788420498,-33.97046910821722],[-69.87748619822133,-33.96725088095206],[-69.87610551817235,-33.96571196904088],[-69.87415503224707,-33.964572421176726],[-69.87322231058927,-33.96444797951269],[-69.87073266211868,-33.96354699184754],[-69.86946997757892,-33.96341761491134],[-69.86353112360743,-33.963488978743186],[-69.86062736167236,-33.96375918145821],[-69.8586351597819,-33.96368473555908],[-69.85704571305753,-33.963339045560275],[-69.85558166396031,-33.96382694266689],[-69.85465055118517,-33.96357638208891],[-69.85352432522862,-33.96353366352957],[-69.8534644138874,-33.96390037814902],[-69.85468761387716,-33.964897178603856],[-69.85491354645933,-33.96547394483915],[-69.85443354067041,-33.969361902956805],[-69.85297778392156,-33.97421758437262],[-69.85212303962368,-33.97538386898393],[-69.8480964293975,-33.97925367847891],[-69.8457086004728,-33.981917831210914],[-69.84542507510113,-33.98252729666141],[-69.84497254698013,-33.9854168281425],[-69.84421800705722,-33.987312157596584],[-69.84362370052988,-33.988489375545285],[-69.84087238898671,-33.99256097751972],[-69.84178547526905,-33.99413022580131],[-69.84163680858109,-33.99491193293523],[-69.84077514006898,-33.996564020003795],[-69.84207264600413,-33.99818996242031],[-69.84240281999017,-33.99915390415353],[-69.84170268293919,-34.001015448698645],[-69.84050146741937,-34.00236066818432],[-69.84027463652193,-34.0028914199645],[-69.84011409500422,-34.003533055245526],[-69.84020279285875,-34.00461287080294],[-69.83979002596887,-34.00552293441686],[-69.83990783103522,-34.00675710696394],[-69.83974963412042,-34.00721424784307],[-69.83930242222928,-34.00773571603205],[-69.83553749124536,-34.00783840512095],[-69.83278994723649,-34.00873569377391],[-69.82783195743554,-34.0095533248601],[-69.82387496574556,-34.01052105148471],[-69.82303876626841,-34.011269216716435],[-69.82216432101802,-34.01274512988263],[-69.82157011061041,-34.0155565392556],[-69.82179539910051,-34.0160747790203],[-69.82366476985055,-34.017729521381455],[-69.82576497708592,-34.021325429079404],[-69.82802387890273,-34.02446882417882],[-69.832046087384,-34.027285822846395],[-69.83684649022624,-34.032197496825766],[-69.8397519544688,-34.03352185356654],[-69.84218850172631,-34.03498861637753],[-69.84289703712687,-34.03625655768528],[-69.84523413189929,-34.038831172467155],[-69.84669386009999,-34.04129232301501],[-69.84727735540291,-34.04530601513716],[-69.84879667783957,-34.04835945960536],[-69.8495509311999,-34.05111962751492],[-69.85060366508472,-34.05237945023475],[-69.85372078049305,-34.055202858186576],[-69.85419646538544,-34.05642498837927],[-69.85389894605831,-34.05878077351875],[-69.85069625623768,-34.061514274659245],[-69.85011145478434,-34.065514962251264],[-69.8497828735113,-34.06633862380947],[-69.8489749547959,-34.067015989688365],[-69.848752028875,-34.068091732183944],[-69.84848602873622,-34.06841826894675],[-69.8465654270655,-34.069075887569696],[-69.84507673358677,-34.070237983726244],[-69.8405159455668,-34.070946585385805],[-69.83545146048893,-34.0713411325985],[-69.83312104918224,-34.0709727819341],[-69.83237937762578,-34.07177895377288],[-69.83230025221891,-34.0733469845164],[-69.83413745519697,-34.0771749135864],[-69.83413895807843,-34.079682730110065],[-69.83361343375574,-34.08249259431802],[-69.83402209714144,-34.08625580489621],[-69.83526170935146,-34.08698344103689],[-69.83713414245831,-34.087715174647506],[-69.83742861649667,-34.08822285933311],[-69.83707577172778,-34.090553780862656],[-69.83720590886637,-34.091027492965516],[-69.83830729820191,-34.091848313104215],[-69.83961707602215,-34.09245729200507],[-69.84121507650465,-34.094910812177694],[-69.8422188342402,-34.095826533689205],[-69.8452787602026,-34.097094407782556],[-69.84736185093853,-34.097537661534616],[-69.85139743263943,-34.09887341263014],[-69.85223656331938,-34.09884572581558],[-69.85312458211371,-34.09922964189344],[-69.8545657475274,-34.10025370489757],[-69.85601730105904,-34.10064786265914],[-69.85776016116931,-34.1026435796305],[-69.85987559574704,-34.103718351879195],[-69.8601312095645,-34.10404428712802],[-69.85948352604127,-34.10594410311145],[-69.85796146284468,-34.10923007821818],[-69.85759080538205,-34.11097952591554],[-69.85761352108064,-34.11220065352853],[-69.85710855470323,-34.11285933334861],[-69.85621775831805,-34.11354678037608],[-69.85690990305794,-34.11503016306248],[-69.8576560545127,-34.11573684812625],[-69.85910866536142,-34.11604090002021],[-69.8601700590056,-34.11681488329258],[-69.86140983920056,-34.11846520894052],[-69.8618083372505,-34.119359962316814],[-69.8640284704746,-34.121695246770116],[-69.87005689366642,-34.12410455783045],[-69.87082895792388,-34.124911303483536],[-69.87189236289596,-34.130039183793244],[-69.87305754878638,-34.132100602091704],[-69.87322205726437,-34.13303945872767],[-69.87294742880727,-34.13391945359158],[-69.8706437316005,-34.135290809811956],[-69.87024984639956,-34.13585958414734],[-69.86986122712281,-34.14106830778991],[-69.86931870936989,-34.1411301742419],[-69.86896228571294,-34.141457574231225],[-69.86520129024828,-34.14189636058449],[-69.86488720059741,-34.14069711333122],[-69.86373078316248,-34.1404258546108],[-69.8623031068511,-34.141539442617685],[-69.86118951839399,-34.14163938003828],[-69.86063439098943,-34.141892794059125],[-69.86011876160963,-34.14261019942985],[-69.85667919503172,-34.14547754894997],[-69.85627458214967,-34.14651149373649],[-69.85565689696703,-34.147318487202085],[-69.8536973721934,-34.14770447601519],[-69.85037770914636,-34.1497530348818],[-69.84544057912463,-34.15320126854879],[-69.84062862484615,-34.155601003397464],[-69.83968199726772,-34.15632646489519],[-69.83905742470183,-34.157520321739135],[-69.83830590940649,-34.158064915459846],[-69.83653786772217,-34.15852615747282],[-69.8345548906314,-34.161287997350485],[-69.83496609894428,-34.16310186252723],[-69.83451573306816,-34.16555465027291],[-69.83246322188282,-34.167422043013495],[-69.83127041279741,-34.16801553742084],[-69.82965596865363,-34.16827602171113],[-69.82796753926306,-34.168051606376814],[-69.82708081314443,-34.168446405392736],[-69.82547633221544,-34.16981479227418],[-69.82335500558777,-34.17083267655617],[-69.82248804869359,-34.172583416356886],[-69.82141563721245,-34.173389074099894],[-69.81909715193947,-34.17465961188888],[-69.81577022062349,-34.177026516950626],[-69.81471924743663,-34.17819766925578],[-69.81426616954666,-34.1789933885728],[-69.81379893061455,-34.17984253931567],[-69.81337524200744,-34.18139590090976],[-69.81221939410439,-34.18311627212467],[-69.81162825593506,-34.184770619078186],[-69.81091214683832,-34.18566772595692],[-69.80906367629167,-34.18766946393524],[-69.80164137230778,-34.193018266726085],[-69.80113777586119,-34.19354165624358],[-69.80137957987779,-34.19388640419555],[-69.80072313239066,-34.1946051109416],[-69.80057441539707,-34.19508100405767],[-69.80087184758763,-34.19749020736012],[-69.80072313239066,-34.198498504535586],[-69.80021527433635,-34.199517458894924],[-69.79967123034578,-34.20173195119419],[-69.79918203029993,-34.20560567425717],[-69.79738392918958,-34.20786592292061],[-69.79712850671326,-34.209165172987454],[-69.79741466504701,-34.2102038825909],[-69.79899589038992,-34.21346976520622],[-69.80022368346573,-34.215366027259584],[-69.8005234952935,-34.21652244567791],[-69.80026651334184,-34.217107792715446],[-69.79882455920735,-34.2188067279562],[-69.79869606868068,-34.21940635149472],[-69.79901015743326,-34.220755505936616],[-69.79953839826135,-34.22155500484845],[-69.8011088420242,-34.22224028963917],[-69.80132299320141,-34.22248299514291],[-69.80170093150943,-34.22553203635962],[-69.80269356361018,-34.22600221841037],[-69.80396419464697,-34.22637341428038],[-69.80498512188254,-34.22643253986177],[-69.80539187185664,-34.22670177895108],[-69.80504923015278,-34.22911455332841],[-69.80504923015278,-34.23118468325736],[-69.80447815855024,-34.232044145073765],[-69.80269356271187,-34.2336574196536],[-69.80237947395929,-34.23422849070873],[-69.80249368935777,-34.23527069377366],[-69.80353589229253,-34.237883341970154],[-69.80523918969938,-34.240584031547755],[-69.80528677974819,-34.24165478957014],[-69.80500124394692,-34.24203550203359],[-69.80497745027,-34.24274933957363],[-69.80547060829299,-34.244574489648755],[-69.80547016632187,-34.24633040819067],[-69.80574589521517,-34.24720212213638],[-69.80658580653109,-34.24808874127289],[-69.80807061120296,-34.248255233835735],[-69.80904026170379,-34.24790479235974],[-69.81042063902052,-34.24772029058113],[-69.81318575227971,-34.24796357981003],[-69.81631044767242,-34.2472182238686],[-69.82005105766832,-34.24842575367183],[-69.82333636015572,-34.248884525610585],[-69.82414379108592,-34.2492113990818],[-69.82686546091966,-34.25221708431768],[-69.82720087028719,-34.25278057314511],[-69.82706229527317,-34.25457561271954],[-69.82752498334001,-34.25580638519421],[-69.82801212983713,-34.25636271398878],[-69.82879330480822,-34.25664333906886],[-69.83000057946461,-34.256951068077605],[-69.83186117008108,-34.25689464724179],[-69.83428395514844,-34.256114587256896],[-69.83589583100884,-34.25610168584963],[-69.83874325959248,-34.25635698351207],[-69.840964283047,-34.257045001000655],[-69.84364235404675,-34.256712251540336],[-69.84634652020718,-34.257326070773914],[-69.85365352542436,-34.25603545102125],[-69.85396364092844,-34.256462737399566],[-69.85433851328638,-34.25805882067319],[-69.85646354187135,-34.26143500914492],[-69.85713762238919,-34.261485926963644],[-69.85906255663453,-34.26081051461084],[-69.86069169631804,-34.26329671092214],[-69.86142347742322,-34.26405693307892],[-69.86355331289327,-34.26353411598893],[-69.86433950046363,-34.26350404802377],[-69.86619878582798,-34.26442863897478],[-69.86754361411397,-34.26566476179695],[-69.87010127133978,-34.26598823671242],[-69.87171582867127,-34.266726758965554],[-69.8723753906175,-34.26684905955794],[-69.87423226131037,-34.26702598712168],[-69.87871218658175,-34.266876042442284],[-69.88206797627623,-34.265431659767316],[-69.8842203343071,-34.26359380569361],[-69.88494369011322,-34.2638603052052],[-69.88610486772083,-34.26486919630611],[-69.88684249955345,-34.26515473222565],[-69.88968034041805,-34.264912692434734],[-69.8955850512222,-34.26529891001676],[-69.8965857915167,-34.26559729394704],[-69.89717283965655,-34.26597759890376],[-69.89908026214374,-34.26926294222644],[-69.89950009518166,-34.27071677683589],[-69.89894417905629,-34.27193627002086],[-69.89836915037492,-34.276338272279546],[-69.8987260914615,-34.28104475071795],[-69.89784422163528,-34.284745101779045],[-69.89885885886723,-34.285089091965176],[-69.90008332637987,-34.28520318056364],[-69.90262779004911,-34.28650706735851],[-69.90462263927466,-34.28766188875584],[-69.90845348593916,-34.290446524988866],[-69.90937311465173,-34.29066938312954],[-69.91350072605854,-34.29021987444358],[-69.91509362590688,-34.28964675051703],[-69.91641910448165,-34.289481335162314],[-69.91905013070995,-34.28953668467917],[-69.92112548964624,-34.28990215266959],[-69.92224660059554,-34.28960656250153],[-69.92367138163675,-34.28636530622537],[-69.92377729480539,-34.28481178234418],[-69.92489785508742,-34.2844891339569],[-69.92719770391152,-34.28270249600719],[-69.92813763993938,-34.282484832538536],[-69.92919811820028,-34.28249733205186],[-69.9312961793604,-34.28131017431249],[-69.93397236299977,-34.2811419056175],[-69.93810249418097,-34.28038097837339],[-69.94023369419192,-34.279780285305975],[-69.94024626791096,-34.27695317678815],[-69.94087380222234,-34.274520720791315],[-69.94189425514745,-34.272541278681665],[-69.94263548922434,-34.271747987468025],[-69.94356748684005,-34.2711291208172],[-69.94581548400762,-34.27002433757556],[-69.94691517732394,-34.26730969167754],[-69.94948927371944,-34.26551143305264],[-69.95004409479847,-34.26431861509762],[-69.9510245178962,-34.263183885149054],[-69.95455946130274,-34.25967817183715],[-69.96275754407779,-34.253734922036294],[-69.96662521178749,-34.25196248542819],[-69.96854249148828,-34.250762675239976],[-69.97085486821733,-34.24991667591861],[-69.97347311860567,-34.24984870461907],[-69.97539244107541,-34.251467586375774],[-69.9780901618237,-34.25260498332951],[-69.97947976483837,-34.25272952308737],[-69.98196110748584,-34.25355185642603],[-69.9835481206741,-34.25434644936284],[-69.98426469330153,-34.25534843803428],[-69.9851292229478,-34.25753161764405],[-69.98530772268634,-34.25960129230001],[-69.98710482666674,-34.26109330762841],[-69.98791409824494,-34.26134712605476],[-69.98878282751518,-34.261328669784895],[-69.98994692464746,-34.2608135935211],[-69.9909800626827,-34.26082430399986],[-69.99167508203148,-34.261334630821224],[-69.99272205861367,-34.26136398013957],[-69.99464090856956,-34.26103733206546],[-69.99548704970198,-34.260635153893254],[-69.99667264621397,-34.260566639615995],[-69.99757818395297,-34.26085581029148],[-69.99987280548044,-34.26123330799523],[-70.00037695528924,-34.26114311793367],[-70.00287704128512,-34.261626308288875],[-70.00418960118778,-34.26210321489905]]]}}],"bbox":[-70.500451,-34.2906694,-69.7696136,-33.0514435],"metadata":{"coordinate_reference_system":"EPSG:4326","coordinate_order":"longitude, latitude"}}