{"type":"FeatureCollection","features":[{"type":"Feature","properties":{"name":"La Obra","provider":"osm","source_id":214190358,"kind":"localidad","municipal":true,"sector":"Valle del Maipo","id":"1","number":1,"source":"OpenStreetMap","source_url":"https://www.openstreetmap.org/node/214190358","original_name":"La Obra","access_status":"Por confirmar","capital":null,"note":null,"osm_type":null,"municipal_name":null,"distance_outside_m":0.0},"geometry":{"type":"Point","coordinates":[-70.4847618,-33.591501199999996]}},{"type":"Feature","properties":{"name":"El Melocotón","provider":"osm","source_id":214202600,"kind":"localidad","municipal":true,"sector":"Valle del Maipo","id":"10","number":10,"source":"OpenStreetMap","source_url":"https://www.openstreetmap.org/node/214202600","original_name":"El Melocotón","access_status":"Por confirmar","capital":null,"note":null,"osm_type":null,"municipal_name":null,"distance_outside_m":0.0},"geometry":{"type":"Point","coordinates":[-70.3343701,-33.6983723]}},{"type":"Feature","properties":{"name":"San Alfonso","provider":"osm","source_id":214200550,"kind":"localidad","municipal":true,"sector":"Valle del Maipo","id":"11","number":11,"source":"OpenStreetMap","source_url":"https://www.openstreetmap.org/node/214200550","original_name":"San Alfonso","access_status":"Por confirmar","capital":null,"note":null,"osm_type":null,"municipal_name":null,"distance_outside_m":0.0},"geometry":{"type":"Point","coordinates":[-70.3283138,-33.7218412]}},{"type":"Feature","properties":{"name":"El Ingenio","provider":"osm","source_id":214228616,"kind":"localidad","municipal":true,"sector":"Valle del Maipo","id":"12","number":12,"source":"OpenStreetMap","source_url":"https://www.openstreetmap.org/node/214228616","original_name":"El Ingenio","access_status":"Por confirmar","capital":null,"note":null,"osm_type":null,"municipal_name":null,"distance_outside_m":0.0},"geometry":{"type":"Point","coordinates":[-70.2782102,-33.7663488]}},{"type":"Feature","properties":{"name":"Bollenar","provider":"bcn","source_id":2672,"kind":"localidad","municipal":true,"sector":"Valle del Maipo","id":"13","number":13,"source":"BCN · Nombres geográficos","source_url":"https://www.bcn.cl/siit/mapas_vectoriales","original_name":"Bollenar","access_status":"Por confirmar","capital":null,"note":"Ubicación referencial BCN. No se fusionó automáticamente con El Boyenar de OSM por la diferencia de nombre y posición.","osm_type":null,"municipal_name":null,"distance_outside_m":0.0},"geometry":{"type":"Point","coordinates":[-70.26638625958071,-33.766776777652986]}},{"type":"Feature","properties":{"name":"San Gabriel","provider":"osm","source_id":214198561,"kind":"localidad","municipal":true,"sector":"Valle del Maipo","id":"14","number":14,"source":"OpenStreetMap","source_url":"https://www.openstreetmap.org/node/214198561","original_name":"San Gabriel","access_status":"Por confirmar","capital":null,"note":null,"osm_type":null,"municipal_name":null,"distance_outside_m":0.0},"geometry":{"type":"Point","coordinates":[-70.2370499,-33.78303029999999]}},{"type":"Feature","properties":{"name":"El Romeral","provider":"osm","source_id":5971014196,"kind":"localidad","municipal":true,"sector":"Confluencia Yeso–Maipo","id":"15","number":15,"source":"OpenStreetMap","source_url":"https://www.openstreetmap.org/node/5971014196","original_name":"El Romeral","access_status":"Por confirmar","capital":null,"note":null,"osm_type":null,"municipal_name":null,"distance_outside_m":0.0},"geometry":{"type":"Point","coordinates":[-70.2214136,-33.7928829]}},{"type":"Feature","properties":{"name":"Embalse El Yeso","provider":"osm","source_id":28962207,"kind":"hito","municipal":true,"sector":"Valle del Yeso","id":"16","number":16,"source":"OpenStreetMap","source_url":"https://www.openstreetmap.org/way/28962207","original_name":"Embalse El Yeso","access_status":"Por confirmar","capital":null,"note":"Centro de la extensión del embalse en OSM; no es un punto de acceso ni un poblado.","osm_type":"way","municipal_name":null,"distance_outside_m":0.0},"geometry":{"type":"Point","coordinates":[-70.070267,-33.651150699999995]}},{"type":"Feature","properties":{"name":"Los Queltehues","provider":"osm","source_id":214225260,"kind":"localidad","municipal":true,"sector":"Valle del Maipo","id":"17","number":17,"source":"OpenStreetMap","source_url":"https://www.openstreetmap.org/node/214225260","original_name":"Los Queltehues","access_status":"Por confirmar","capital":null,"note":null,"osm_type":null,"municipal_name":null,"distance_outside_m":0.0},"geometry":{"type":"Point","coordinates":[-70.2183433,-33.8151932]}},{"type":"Feature","properties":{"name":"Las Melosas","provider":"osm","source_id":214193869,"kind":"localidad","municipal":true,"sector":"Valle del Maipo","id":"18","number":18,"source":"OpenStreetMap","source_url":"https://www.openstreetmap.org/node/214193869","original_name":"Las Melosas","access_status":"Por confirmar","capital":null,"note":null,"osm_type":null,"municipal_name":null,"distance_outside_m":0.0},"geometry":{"type":"Point","coordinates":[-70.2027344,-33.84610899999999]}},{"type":"Feature","properties":{"name":"El Volcán","provider":"osm","source_id":214211482,"kind":"localidad","municipal":true,"sector":"Valle del Volcán","id":"19","number":19,"source":"OpenStreetMap","source_url":"https://www.openstreetmap.org/node/214211482","original_name":"El Volcán","access_status":"Por confirmar","capital":null,"note":null,"osm_type":null,"municipal_name":null,"distance_outside_m":0.0},"geometry":{"type":"Point","coordinates":[-70.1688136,-33.81537590000001]}},{"type":"Feature","properties":{"name":"Las Vertientes","provider":"osm","source_id":478969776,"kind":"localidad","municipal":true,"sector":"Valle del Maipo","id":"2","number":2,"source":"OpenStreetMap","source_url":"https://www.openstreetmap.org/node/478969776","original_name":"Las Vertientes","access_status":"Por confirmar","capital":null,"note":null,"osm_type":null,"municipal_name":null,"distance_outside_m":0.0},"geometry":{"type":"Point","coordinates":[-70.4669595,-33.5883894]}},{"type":"Feature","properties":{"name":"Baños Morales","provider":"osm","source_id":418990982,"kind":"localidad","municipal":true,"sector":"Valle del Volcán","id":"20","number":20,"source":"OpenStreetMap","source_url":"https://www.openstreetmap.org/node/418990982","original_name":"Baños Morales","access_status":"Por confirmar","capital":null,"note":null,"osm_type":null,"municipal_name":null,"distance_outside_m":0.0},"geometry":{"type":"Point","coordinates":[-70.0610198,-33.822876799999996]}},{"type":"Feature","properties":{"name":"El Morado (acceso)","provider":"osm","source_id":418991088,"kind":"hito","municipal":true,"sector":"Valle del Volcán","id":"21","number":21,"source":"OpenStreetMap","source_url":"https://www.openstreetmap.org/node/418991088","original_name":"El Morado","access_status":"Por confirmar","capital":null,"note":"Punto de referencia de El Morado junto a Baños Morales; el área protegida se representa por su polígono MMA.","osm_type":null,"municipal_name":"El Morado","distance_outside_m":0.0},"geometry":{"type":"Point","coordinates":[-70.0634377,-33.82244380000001]}},{"type":"Feature","properties":{"name":"Lo Valdés","provider":"osm","source_id":12819749700,"kind":"localidad","municipal":true,"sector":"Valle del Volcán","id":"22","number":22,"source":"OpenStreetMap","source_url":"https://www.openstreetmap.org/node/12819749700","original_name":"Lo Valdés","access_status":"Por confirmar","capital":null,"note":null,"osm_type":null,"municipal_name":null,"distance_outside_m":0.0},"geometry":{"type":"Point","coordinates":[-70.0628078,-33.8273783]}},{"type":"Feature","properties":{"name":"Baños Colina","provider":"osm","source_id":418993525,"kind":"hito","municipal":true,"sector":"Valle del Volcán","id":"23","number":23,"source":"OpenStreetMap","source_url":"https://www.openstreetmap.org/node/418993525","original_name":"Baños Colina","access_status":"Por confirmar","capital":null,"note":"Sector termal incluido en el listado municipal. Verificar acceso con su administrador.","osm_type":null,"municipal_name":null,"distance_outside_m":0.0},"geometry":{"type":"Point","coordinates":[-69.984267,-33.8513148]}},{"type":"Feature","properties":{"name":"El Alfalfal","provider":"osm","source_id":214226293,"kind":"localidad","municipal":false,"sector":"Valle del Colorado","id":"24","number":24,"source":"OpenStreetMap","source_url":"https://www.openstreetmap.org/node/214226293","original_name":"El Alfalfal","access_status":"Por confirmar","capital":null,"note":null,"osm_type":null,"municipal_name":null,"distance_outside_m":0.0},"geometry":{"type":"Point","coordinates":[-70.1980364,-33.5043385]}},{"type":"Feature","properties":{"name":"Río Colorado","provider":"osm","source_id":5971014201,"kind":"localidad","municipal":false,"sector":"Valle del Colorado","id":"25","number":25,"source":"OpenStreetMap","source_url":"https://www.openstreetmap.org/node/5971014201","original_name":"Río Colorado","access_status":"Por confirmar","capital":null,"note":null,"osm_type":null,"municipal_name":null,"distance_outside_m":0.0},"geometry":{"type":"Point","coordinates":[-70.3004301,-33.5522142]}},{"type":"Feature","properties":{"name":"El Canelo","provider":"osm","source_id":214212998,"kind":"localidad","municipal":true,"sector":"Valle del Maipo","id":"3","number":3,"source":"OpenStreetMap","source_url":"https://www.openstreetmap.org/node/214212998","original_name":"El Canelo","access_status":"Por confirmar","capital":null,"note":null,"osm_type":null,"municipal_name":null,"distance_outside_m":0.0},"geometry":{"type":"Point","coordinates":[-70.4536558,-33.5779499]}},{"type":"Feature","properties":{"name":"El Manzano","provider":"osm","source_id":214191213,"kind":"localidad","municipal":true,"sector":"Valle del Maipo","id":"4","number":4,"source":"OpenStreetMap","source_url":"https://www.openstreetmap.org/node/214191213","original_name":"El Manzano","access_status":"Por confirmar","capital":null,"note":null,"osm_type":null,"municipal_name":null,"distance_outside_m":0.0},"geometry":{"type":"Point","coordinates":[-70.396078,-33.5842598]}},{"type":"Feature","properties":{"name":"Los Maitenes","provider":"osm","source_id":214197160,"kind":"localidad","municipal":true,"sector":"Valle del Colorado","id":"5","number":5,"source":"OpenStreetMap","source_url":"https://www.openstreetmap.org/node/214197160","original_name":"Los Maitenes","access_status":"Por confirmar","capital":null,"note":null,"osm_type":null,"municipal_name":null,"distance_outside_m":0.0},"geometry":{"type":"Point","coordinates":[-70.2638775,-33.53530049999999]}},{"type":"Feature","properties":{"name":"El Guayacán","provider":"osm","source_id":214230494,"kind":"localidad","municipal":true,"sector":"Valle del Maipo","id":"6","number":6,"source":"OpenStreetMap","source_url":"https://www.openstreetmap.org/node/214230494","original_name":"El Guayacán","access_status":"Por confirmar","capital":null,"note":null,"osm_type":null,"municipal_name":null,"distance_outside_m":0.0},"geometry":{"type":"Point","coordinates":[-70.350832,-33.6062628]}},{"type":"Feature","properties":{"name":"San José de Maipo","provider":"osm","source_id":214180495,"kind":"localidad","municipal":true,"sector":"Valle del Maipo","id":"7","number":7,"source":"OpenStreetMap","source_url":"https://www.openstreetmap.org/node/214180495","original_name":"San José de Maipo","access_status":"Por confirmar","capital":true,"note":null,"osm_type":null,"municipal_name":null,"distance_outside_m":0.0},"geometry":{"type":"Point","coordinates":[-70.35278450000001,-33.6403975]}},{"type":"Feature","properties":{"name":"Lagunillas","provider":"bcn","source_id":35449,"kind":"localidad","municipal":true,"sector":"Sector Lagunillas","id":"8","number":8,"source":"BCN · Nombres geográficos","source_url":"https://www.bcn.cl/siit/mapas_vectoriales","original_name":"Lagunillas","access_status":"Por confirmar","capital":null,"note":"Ubicación referencial del topónimo BCN; no representa un acceso ni una instalación de esquí.","osm_type":null,"municipal_name":null,"distance_outside_m":0.0},"geometry":{"type":"Point","coordinates":[-70.2997199370307,-33.61677739455941]}},{"type":"Feature","properties":{"name":"El Toyo","provider":"osm","source_id":479049428,"kind":"localidad","municipal":true,"sector":"Valle del Maipo","id":"9","number":9,"source":"OpenStreetMap","source_url":"https://www.openstreetmap.org/node/479049428","original_name":"El Toyo","access_status":"Por confirmar","capital":null,"note":null,"osm_type":null,"municipal_name":null,"distance_outside_m":0.0},"geometry":{"type":"Point","coordinates":[-70.3491273,-33.6739251]}}],"bbox":[-70.4847618,-33.8513148,-69.984267,-33.5043385],"metadata":{"coordinate_reference_system":"EPSG:4326","coordinate_order":"longitude, latitude"}}